addressDetailEn,addressDetailTh,addressEn,addressTh,branchNameEn,branchNameTh,districtEn,districtTh,faxExt,faxTh,latitude,longtitude,provinceNameEn,provinceNameTh,subDistrictEn,subDistrictTh,telExt,telTh,timeEn,timeTh,timeWeekendEn,timeWeekendTh,workingHourEn,workingHourTh,workingHourWeekendEn,workingHourWeekendTh,zipCode,code,mobile,branchType
,"84/8, 84/9 หมู่ที่ 2",,"84/8, 84/9 หมู่ที่ 2 ตำบลบ้านกร่าง อำเภอกงไกรลาศ จังหวัดสุโขทัย 64170",,กงไกรลาส (สุโขทัย),,กงไกรลาส,,055-615-567,16.951964,99.973456,,สุโขทัย,,บ้านกร่าง,,055-615-566,,09.00 - 17.00 น.,,09.00 - 15.00 น.,,จันทร์ - ศุกร์,,เสาร์,,HW-318,063-905-5333,SOMWANG
,"521/4 ,521/5 หมู่ที่ 17",,"521/4 ,521/5 หมู่ที่ 17 ตำบลเมืองเก่า อำเภอกบินทร์บุรี จังหวัดปราจีนบุรี 25240",,กบินทร์บุรี,,กบินทร์บุรี,,037-210-159,13.983378,101.764997,,ปราจีนบุรี,,เมืองเก่า,,037-210-158,,09.00 - 17.00 น.,,09.00 - 15.00 น.,,จันทร์ - ศุกร์,,เสาร์,,HW-242,063-9050666,SOMWANG
,205/20 หมู่ที่ 2,,205/20 หมู่ที่ 2 ตำบลคลองมะเดื่อ อำเภอกระทุ่มแบน จังหวัดสมุทรสาคร 74110,,กระทุ่มแบน,,กระทุ่มแบน,,034-460-049,13.654445,100.273962,,สมุทรสาคร,,คลองมะเดื่อ,,034-460-050,,09.00 - 17.00 น.,,09.00 - 15.00 น.,,จันทร์ - ศุกร์,,เสาร์,,HW-127,090-9806000,SOMWANG
,171 หมู่ที่11,,171 หมู่ที่11 ตำบลหนองโก อำเภอกระนวน จังหวัดขอนแก่น 40170,,กระนวน,,กระนวน,,043-252-832,16.703423,103.080394,,ขอนแก่น,,หนองโก,,043-252-833,,09.00 - 17.00 น.,,09.00 - 15.00 น.,,จันทร์ - ศุกร์,,เสาร์,,HW-047,084-3658000,SOMWANG
,17/108 หมู่ที่ 6,,17/108 หมู่ที่ 6 ตำบลกะทู้ อำเภอกะทู้ จังหวัดภูเก็ต 83120,,กะทู้ (ภูเก็ต),,กะทู้,,076-530-681,7.910564,98.335436,,ภูเก็ต,,กะทู้,,076-530-680,,09.00 - 17.00 น.,,09.00 - 15.00 น.,,จันทร์ - ศุกร์,,เสาร์,,HW-254,091-889-3444,SOMWANG
,739/14-15 หมู่ที่ 8,,739/14-15 หมู่ที่ 8 ตำบลน้ำอ้อม อำเภอกันทรลักษ์ จังหวัดศรีสะเกษ 33110,,กันทรลักษ์,,กันทรลักษ์,,045-661-008,14.646622,104.64194,,ศรีสะเกษ,,น้ำอ้อม,,045-661-007,,09.00 - 17.00 น.,,09.00 - 15.00 น.,,จันทร์ - ศุกร์,,เสาร์,,HW-133,091-8896000,SOMWANG
,84/11 หมู่ที่ 6,,84/11 หมู่ที่ 6 ตำบลดูน อำเภอกันทรารมย์ จังหวัดศรีสะเกษ 33130,,กันทรารมย์ (ศรีสะเกษ),,กันทรารมย์,,045-651-113,15.09986,104.576916,,ศรีสะเกษ,,ดูน,,045-651-112,,09.00 - 17.00 น.,,09.00 - 15.00 น.,,จันทร์ - ศุกร์,,เสาร์,,HW-350,063-906-0444,SOMWANG
,34/19 หมู่ที่ 8,,34/19 หมู่ที่ 8 ตำบลกะแดะ อำเภอกาญจนดิษฐ์ จังหวัดสุราษฎร์ธานี 84160,,กาญจนดิษฐ์,,กาญจนดิษฐ์,,077-379-127,9.16355,99.478996,,สุราษฎร์ธานี,,กะแดะ,,077-379-126,,09.00 - 17.00 น.,,09.00 - 15.00 น.,,จันทร์ - ศุกร์,,เสาร์,,HW-120,091-7743000,SOMWANG
,160/48 ถนนแสงชูโต,,160/48 ถนนแสงชูโต ตำบลบ้านเหนือ อำเภอเมืองกาญจนบุรี จ.กาญจนบุรี 71000,,กาญจนบุรี,,เมืองกาญจนบุรี,,034-511-943,14.02038,99.533225,,กาญจนบุรี,,บ้านเหนือ,,034-511-944,,09.00 - 17.00 น.,,09.00 - 15.00 น.,,จันทร์ - ศุกร์,,เสาร์,,HW-132,091-7749000,SOMWANG
,1/8-9 ถนนถีนานนท์,,1/8-9 ถนนถีนานนท์ ตำบลกาฬสินธุ์ อำเภอเมืองกาฬสินธุ์ จังหวัดกาฬสินธุ์ 46000,,กาฬสินธุ์,,เมืองกาฬสินธุ์,,043-813-402,16.433493,103.511617,,กาฬสินธุ์,,กาฬสินธุ์,,043-813-401,,09.00 - 17.00 น.,,09.00 - 15.00 น.,,จันทร์ - ศุกร์,,เสาร์,,HW-064,086-2208000,SOMWANG
,175 ถนนบำรุงราษฎร์,,175 ถนนบำรุงราษฎร์ ตำบลในเมือง อำเภอเมือง จังหวัดกำแพงเพชร 62000,,กำแพงเพชร,,กำแพงเพชร,,055-712-334,16.471695,99.53326,,กำแพงเพชร,,ในเมือง,,055-712-335,,09.00 - 17.00 น.,,09.00 - 15.00 น.,,จันทร์ - ศุกร์,,เสาร์,,HW-012,084-8265000,SOMWANG
,78/1 หมู่ที่ 13,,78/1 หมู่ที่ 13 ตำบลเมืองเพีย อำเภอกุดจับ จังหวัดอุดรธานี 41250,,กุดจับ (อุดรธานี),,กุดจับ,,042-217-502,17.421173,102.565131,,อุดรธานี,,เมืองเพีย,,042-217-501,,09.00 - 17.00 น.,,09.00 - 15.00 น.,,จันทร์ - ศุกร์,,เสาร์,,HW-298,091-889-6622,SOMWANG
,111/1-2 หมู่ที่ 1,,111/1-2 หมู่ที่ 1 ตำบลกุมภวาปี อำเภอกุมภวาปี จังหวัดอุดรธานี 41110,,กุมภวาปี,,กุมภวาปี,,042-334-638,17.110928,103.012371,,อุดรธานี,,กุมภวาปี,,042-334-637,,09.00 - 17.00 น.,,09.00 - 15.00 น.,,จันทร์ - ศุกร์,,เสาร์,,HW-125,090-9902000,SOMWANG
,555/14 หมู่ที่ 13,,555/14 หมู่ที่ 13 ตำบลในเมือง อำเภอเมืองขอนแก่น จังหวัดขอนแก่น 40000,,ขอนแก่น,,ขอนแก่น,,043-245-270,16.448567,102.841496,,ขอนแก่น,,ในเมือง,,043-245-240,,09.00 - 17.00 น.,,09.00 - 15.00 น.,,จันทร์ - ศุกร์,,เสาร์,,HW-021,080-2435000,SOMWANG
,129/1-2 หมู่ที่ 6,,129/1-2 หมู่ที่ 6 ตำบลห้วยเหนือ อำเภอขุขันธ์ จังหวัดศรีสะเกษ 33140,,ขุขันธ์,,ขุขันธ์,,045-671-783,14.718685,104.198892,,ศรีสะเกษ,,ห้วยเหนือ,,045-671-782,,09.00 - 17.00 น.,,09.00 - 15.00 น.,,จันทร์ - ศุกร์,,เสาร์,,HW-191,063-9010440,SOMWANG
,"283/4, 283/5 หมู่ที่ 4",,"283/4, 283/5 หมู่ที่ 4 ตำบลสิ อำเภอขุนหาญ จังหวัดศรีสะเกษ 33150",,ขุนหาญ (ศรีสะเกษ),,ขุนหาญ,,045-826-173,14.627226,104.421765,,ศรีสะเกษ,,สิ,,045-826-172,,09.00 - 17.00 น.,,09.00 - 15.00 น.,,จันทร์ - ศุกร์,,เสาร์,,HW-300,091-889-6611,SOMWANG
,934-935 หมู่ที่ 4,,934-935 หมู่ที่ 4 ตำบลแชะ อำเภอครบุรี จังหวัดนครราชสีมา 30250,,ครบุรี,,ครบุรี,,044-445-271,14.525521,102.244199,,นครราชสีมา,,แชะ,,044-445-270,,09.00 - 17.00 น.,,09.00 - 15.00 น.,,จันทร์ - ศุกร์,,เสาร์,,HW-193,083-0998448,SOMWANG
,71 หมู่ที่ 2,,71 หมู่ที่ 2 ตำบลคลองท่อมใต้ อำเภอคลองท่อม จังหวัดกระบี่ 81120,,คลองท่อม (กระบี่),,คลองท่อม,,075-656-431,7.937716,99.144357,,กระบี่,,คลองท่อมใต้,,075-656-427,,09.00 - 17.00 น.,,09.00 - 15.00 น.,,จันทร์ - ศุกร์,,เสาร์,,HW-245,063-9052000,SOMWANG
,1236 ถนนพระรามที่4,,1236 ถนนพระรามที่4 แขวงคลองเตย เขตคลองเตย จังหวัดกรุงเทพมหานคร 10110,,คลองเตย,,คลองเตย,,02-249-7394,13.721042,100.556428,,กรุงเทพมหานคร,,คลองเตย,,02-249-7395,,09.00 - 17.00 น.,,09.00 - 15.00 น.,,จันทร์ - ศุกร์,,เสาร์,,HW-121,091-7735000,SOMWANG
,"201 ,202 หมู่ที่ 4",,"201 ,202 หมู่ที่ 4 ตำบลคลองแห อำเภอหาดใหญ่ จังหวัดสงขลา 90110",,คลองแห (สงขลา),,หาดใหญ่,,074-300-161,7.030377,100.468871,,สงขลา,,คลองแห,,074-300-160,,09.00 - 17.00 น.,,09.00 - 15.00 น.,,จันทร์ - ศุกร์,,เสาร์,,HW-253,063-905-3777,SOMWANG
,195 หมู่ที่ 9,,195 หมู่ที่ 9 ตำบลข่วงเปา อำเภอจอมทอง จังหวัดเชียงใหม่ 50160,,จอมทอง (เชียงใหม่),,จอมทอง,,063-905-8333,18.430149,98.682765,,เชียงใหม่,,ข่วงเปา,,053-106-362,,09.00 - 17.00 น.,,09.00 - 15.00 น.,,จันทร์ - ศุกร์,,เสาร์,,HW-344,053-106-363,SOMWANG
,"72/5, 72/6 หมู่ที่ 2 ถนนจะนะ-นาทวี",,"72/5, 72/6 หมู่ที่ 2 ถนนจะนะ-นาทวี ตำบลบ้านนา อำเภอจะนะ จังหวัดสงขลา 90130",,จะนะ (สงขลา),,จะนะ,,063-905-7000,6.912438,100.73467,,สงขลา,,บ้านนา,,074-207-277,,09.00 - 17.00 น.,,09.00 - 15.00 น.,,จันทร์ - ศุกร์,,เสาร์,,HW-338,063-905-7000,SOMWANG
,449/7 หมู่ที่ 3,,449/7 หมู่ที่ 3 ตำบลจันดี อำเภอฉวาง จังหวัดนครศรีธรรมราช 80250,,จันดี (นครศรีธรรมราช),,ฉวาง,,075-355-290,8.384473,99.542949,,นครศรีธรรมราช,,จันดี,,075-355-250,,09.00 - 17.00 น.,,09.00 - 15.00 น.,,จันทร์ - ศุกร์,,เสาร์,,HW-331,063-905-5556,SOMWANG
,30/26 หมู่ที่ 7,,30/26 หมู่ที่ 7 ตำบลจันทนิมิต อำเภอเมืองจันทบุรี จังหวัดจันทบุรี 22000,,จันทบุรี,,เมืองจันทบุรี,,039-301-883,12.601654,102.117933,,จันทบุรี,,จันทนิมิต,,039-301-882,,09.00 - 17.00 น.,,09.00 - 15.00 น.,,จันทร์ - ศุกร์,,เสาร์,,HW-043,080-9235000,SOMWANG
,17/13 หมู่ที่ 8,,17/13 หมู่ที่ 8 ตำบลฉลอง อำเภอเมืองภูเก็ต จังหวัดภูเก็ต 83130,,ฉลอง(ภูเก็ต),,เมืองภูเก็ต,,076-383-013,7.82535,98.342755,,ภูเก็ต,,ฉลอง,,076-383-012,,09.00 - 17.00 น.,,09.00 - 15.00 น.,,จันทร์ - ศุกร์,,เสาร์,,HW-147,063-9010400,SOMWANG
,86/19-20 ถนนมหาจักรพรรดิ์,,86/19-20 ถนนมหาจักรพรรดิ์ ตำบลหน้าเมือง อำเภอเมืองฉะเชิงเทรา จังหวัดฉะเชิงเทรา 24000,,ฉะเชิงเทรา,,ฉะเชิงเทรา,,038-514-150,13.693404,101.068075,,ฉะเชิงเทรา,,หน้าเมือง,,038-514-149,,09.00 - 17.00 น.,,09.00 - 15.00 น.,,จันทร์ - ศุกร์,,เสาร์,,HW-004,084-7225050,SOMWANG
,53/5-6 ถนนวงษ์โต,,53/5-6 ถนนวงษ์โต ตำบลในเมือง อำเภอเมือง จังหวัดชัยนาท 17000,,ชัยนาท,,เมือง,,056-412-685,15.18621,100.126477,,ชัยนาท,,ในเมือง,,056-412-686,,09.00 - 17.00 น.,,09.00 - 15.00 น.,,จันทร์ - ศุกร์,,เสาร์,,HW-066,082-8548000,SOMWANG
,290/10-11 หมู่ 6,,290/10-11 หมู่ 6 ตำบลในเมือง อำเภอเมือง จังหวัดชัยภูมิ 36000,,ชัยภูมิ,,เมือง,,044-813-040,15.790077,102.029119,,ชัยภูมิ,,ในเมือง,,044-813-044,,09.00 - 17.00 น.,,09.00 - 15.00 น.,,จันทร์ - ศุกร์,,เสาร์,,HW-038,063-906-7000,SOMWANG
,31/159 ซอยงามวงศ์วาน 47 แยก 10 (ชินเขต 1),,31/159 ซอยงามวงศ์วาน 47 แยก 10 (ชินเขต 1) แขวงทุ่งสองห้อง เขตหลักสี่ จังหวัดกรุงเทพฯ 10210,,ชินเขต (ซอยงามวงศ์วาน 47),,หลักสี่,,02-591-9116,13.860741,100.556326,,กรุงเทพฯ,,ทุ่งสองห้อง,,025-919-115,,09.00 - 17.00 น.,,09.00 - 15.00 น.,,จันทร์ - ศุกร์,,เสาร์,,HW-306,091-889-6789,SOMWANG
,188/34-35 ถนนศาลาแดง,,188/34-35 ถนนศาลาแดง ตำบลท่าตะเภา อำเภอเมืองชุมพร จังหวัดชุมพร 86000,,ชุมพร,,ชุมพร,,077-502-983,10.499507,99.177066,,ชุมพร,,ท่าตะเภา,,077-502-982,,09.00 - 17.00 น.,,09.00 - 15.00 น.,,จันทร์ - ศุกร์,,เสาร์,,HW-003,087-0515050,SOMWANG
,2054 หมู่ 1,,2054 หมู่ 1 ตำบลชุมแพ อำเภอชุมแพ จังหวัดขอนแก่น 40130,,ชุมแพ,,ชุมแพ,,043-313-182,16.544126,102.100956,,ขอนแก่น,,ชุมแพ,,043-313-181,,09.00 - 17.00 น.,,09.00 - 15.00 น.,,จันทร์ - ศุกร์,,เสาร์,,HW-022,080-2395000,SOMWANG
,123/6 ถนนแสงราษฎร์ใต้,,123/6 ถนนแสงราษฎร์ใต้ ตำบลชุมแสง อำเภอชุมแสง จังหวัดนครสวรรค์ 60120,,ชุมแสง (นครสวรรค์),,ชุมแสง,,056-282-213,15.888365,100.304405,,นครสวรรค์,,ชุมแสง,,056-282-212,,09.00 - 17.00 น.,,09.00 - 15.00 น.,,จันทร์ - ศุกร์,,เสาร์,,HW-333,063-905-6111,SOMWANG
,211/17 ถนนช้างคลาน,,211/17 ถนนช้างคลาน ตำบลช้างคลาน อำเภอเมืองเชียงใหม่ จังหวัดเชียงใหม่ 50100,,ช้างคลาน (เชียงใหม่),,เมืองเชียงใหม่,,053-283-319,18.773472,98.998906,,เชียงใหม่,,ช้างคลาน,,053-283-318,,09.00 - 17.00 น.,,09.00 - 15.00 น.,,จันทร์ - ศุกร์,,เสาร์,,HW-263,091-889-4222,SOMWANG
,"8/53 ,8/54 ซอยประชาอุทิศ 90",,"8/53 ,8/54 ซอยประชาอุทิศ 90 แขวงทุ่งครุ เขตทุ่งครุ จังหวัดกรุงเทพฯ 10140",,ซอยประชาอุทิศ 90,,ทุ่งครุ,,024-084-805,13.610486,100.509471,,กรุงเทพมหานคร,,ทุ่งครุ,,024-084-804,,09.00 - 17.00 น.,,09.00 - 15.00 น.,,จันทร์ - ศุกร์,,เสาร์,,HW-266,091-889-4333,SOMWANG
,251 ซอยลาดพร้าว122 (มหาดไทย 1),,251 ซอยลาดพร้าว122 (มหาดไทย 1) แขวงพลับพลา เขตวังทองหลาง จังหวัดกรุงเทพฯ 10310,,ซอยมหาดไทย,,วังทองหลาง,,025422060,13.770704,100.622562,,กรุงเทพมหานคร,,พลับพลา,,025-422-059,,09.00 - 17.00 น.,,09.00 - 15.00 น.,,จันทร์ - ศุกร์,,เสาร์,,HW-297,091-889-6555,SOMWANG
,585/4 หมู่ที่ 6,,585/4 หมู่ที่ 6 ตำบลแพรกษา อำเภอเมืองสมุทรปราการ จังหวัดสมุทรปราการ 10280,,ซอยมังกร,,เมืองสมุทรปราการ,,02-174-3144,13.5803797,100.65542,,สมุทรปราการ,,แพรกษา,,02-174-3143,,09.00 - 17.00 น.,,09.00 - 15.00 น.,,จันทร์ - ศุกร์,,เสาร์,,HW-292,091-889-5888,SOMWANG
,125 ถนนลาดพร้าว 101,,125 ถนนลาดพร้าว 101 แขวงคลองจั่น เขตบางกะปิ จังหวัดกรุงเทพฯ 10240,,ซอยลาดพร้าว 101,,บางกะปิ,,021-870-318,13.793,100.62791,,กรุงเทพมหานคร,,คลองจั่น,,021-870-317,,09.00 - 17.00 น.,,09.00 - 15.00 น.,,จันทร์ - ศุกร์,,เสาร์,,HW-280,091-889-5222,SOMWANG
,"44/97 ,44/98 หมู่ที่ 2",,"44/97 ,44/98 หมู่ที่ 2 ตำบลบางพูด อำเภอปากเกร็ด จังหวัดนนทบุรี 11120",,ซอยวัดกู้ (นนทบุรี),,ปากเกร็ด,,02-582-1218,13.934534,100.519348,,นนทบุรี,,บางพูด,,02-582-1217,,09.00 - 17.00 น.,,09.00 - 15.00 น.,,จันทร์ - ศุกร์,,เสาร์,,HW-246,063-9052555,SOMWANG
,555/10 หมู่ที่ 2,,555/10 หมู่ที่ 2 ตำบลบ้านกรด อำเภอบางปะอิน จังหวัดพระนครศรีอยุธยา 13160,,ซอยวัดสุทธิ (อยุธยา),,บางปะอิน,,035-253-114,14.316066,100.607977,,พระนครศรีอยุธยา,,บ้านกรด,,035-253-113,,09.00 - 17.00 น.,,09.00 - 15.00 น.,,จันทร์ - ศุกร์,,เสาร์,,HW-307,091-889-7222,SOMWANG
,417 ถนนเสนานิคม 1,,417 ถนนเสนานิคม 1 แขวงลาดพร้าว เขตลาดพร้าว จังหวัดกรุงเทพฯ 10230,,ซอยเสนานิคม,,ลาดพร้าว,,02-570-1989,13.831721,100.598785,,กรุงเทพมหานคร,,ลาดพร้าว,,025-701-988,,09.00 - 17.00 น.,,09.00 - 15.00 น.,,จันทร์ - ศุกร์,,เสาร์,,HW-325,063-905-5559,SOMWANG
,491 หมูที่ 2,,491 หมูที่ 2 ตำบลด่านขุนทด อำเภอด่านขุนทด จังหวัดนครราชสีมา 30210,,ด่านขุนทด,,ด่านขุนทด,,044-389-421,15.211139,101.768222,,นครราชสีมา,,ด่านขุนทด,,044-389-420,,09.00 - 17.00 น.,,09.00 - 15.00 น.,,จันทร์ - ศุกร์,,เสาร์,,HW-161,083-0968866,SOMWANG
,"407 ,407/1 หมู่ที่ 3",,"407 ,407/1 หมู่ที่ 3 ตำบลด่านซ้าย อำเภอด่านซ้าย จังหวัดเลย 42120",,ด่านซ้าย,,ด่านซ้าย,,042-891-223,17.272831,101.15012,,เลย,,ด่านซ้าย,,042-891-222,,09.00 - 17.00 น.,,09.00 - 15.00 น.,,จันทร์ - ศุกร์,,เสาร์,,HW-207,063-9044422,SOMWANG
,331/3 หมู่ที่ 4,,331/3 หมู่ที่ 4 ตำบลสำโรงเหนือ อำเภอเมืองสมุทรปราการ จังหวัดสมุทรปราการ 10270,,ด่านสำโรง(สุมทรปราการ),,เมืองสุมทรปราการ,,02-130-7943,13.634668,100.621705,,สุมทรปราการ,,สำโรงเหนือ,,02-130-7942,,09.00 - 17.00 น.,,09.00 - 15.00 น.,,จันทร์ - ศุกร์,,เสาร์,,HW-235,063-9048333,SOMWANG
,348 หมู่ที่ 4,,348 หมู่ที่ 4 ตำบลขุหลุ อำเภอตระการพืชผล จังหวัดอุบลราชธานี 34130,,ตระการพืชผล,,ตระการพืชผล,,045-481-098,15.610747,105.025975,,อุบลราชธานี,,ขุหลุ,,045-481-097,,09.00 - 17.00 น.,,09.00 - 15.00 น.,,จันทร์ - ศุกร์,,เสาร์,,HW-218,063-9047000,SOMWANG
,110/2 ถนนรัษฎา,,110/2 ถนนรัษฎา ตำบลทับเที่ยง อำเภอเมืองตรัง จังหวัดตรัง 92000,,ตรัง,,เมืองตรัง,,075-571-604,7.542996,99.615786,,ตรัง,,ทับเที่ยง,,075-571-603,,09.00 - 17.00 น.,,09.00 - 15.00 น.,,จันทร์ - ศุกร์,,เสาร์,,HW-051,082-8438000,SOMWANG
,308/3 หมู่ที่ 2,,308/3 หมู่ที่ 2 ตำบลวังกระแจะ อำเภอเมืองตราด จังหวัดตราด 23000,,ตราด,,เมืองตราด,,039-512-279,12.252366,102.509195,,ตราด,,วังกระแจะ,,039-512-280,,09.00 - 17.00 น.,,09.00 - 15.00 น.,,จันทร์ - ศุกร์,,เสาร์,,HW-131,091-8086000,SOMWANG
,76/27 หมู่ที่ 1,,76/27 หมู่ที่ 1 ตำบลบ้านใหม่ อำเภอปากเกร็ด จังหวัดนนทบุรี 11120,,ตลาดดวงแก้ว(ถนนติวานนท์),,ปากเกร็ด,,02-583-4859,13.948743,100.546517,,นนทบุรี,,บ้านใหม่,,02-583-4889,,09.00 - 17.00 น.,,09.00 - 15.00 น.,,จันทร์ - ศุกร์,,เสาร์,,HW-144,091-0098000,SOMWANG
,"257, 259 ถนนบูรพาใน",,"257, 259 ถนนบูรพาใน ตำบลในเมือง อำเภอเมืองอุบลราชธานี จังหวัดอุบลราชธานี 34000",,ตลาดบ้านดู่ (อุบลราชธานี),,เมืองอุบลราชธานี,,045-429-625,15.236787,104.869419,,อุบลราชธานี,,ในเมือง,,045-429-624,,09.00 - 17.00 น.,,09.00 - 15.00 น.,,จันทร์ - ศุกร์,,เสาร์,,HW-295,091-889-6600,SOMWANG
,"11/214, 11/215 หมู่ที่ 4",,"11/214, 11/215 หมู่ที่ 4 ตำบลมาบยางพร อำเภอปลวกแดง จังหวัดระยอง 21140",,ตลาดป่ามะพร้าว (อมตะซิตี้),,ปลวกแดง,,038-017-277,12.997716,101.099753,,ระยอง,,มาบยางพร,,038-017-270,,09.00 - 17.00 น.,,09.00 - 15.00 น.,,จันทร์ - ศุกร์,,เสาร์,,HW-327,063-905-5558,SOMWANG
,1359/2 ถนนเทอดไทย,,1359/2 ถนนเทอดไทย แขวงตลาดพลู เขตธนบุรี จังหวัดกรุงเทพฯ 10600,,ตลาดพลู,,ธนบุรี,,02-466-5852,13.720137,100.47481,,กรุงเทพมหานคร,,ตลาดพลู,,02-466-5851,,09.00 - 17.00 น.,,09.00 - 15.00 น.,,จันทร์ - ศุกร์,,เสาร์,,HW-192,091-7362999,SOMWANG
,651 ถนนพหลโยธิน,,651 ถนนพหลโยธิน แขวงอนุสาวรีย์ เขตบางเขน จังหวัดกรุงเทพฯ 10220,,ตลาดยิ่งเจริญ,,บางเขน,,02-552-3792,13.894773,100.607916,,กรุงเทพมหานคร,,อนุสาวรีย์,,02-552-3793,,09.00 - 17.00 น.,,09.00 - 15.00 น.,,จันทร์ - ศุกร์,,เสาร์,,HW-190,083-0998338,SOMWANG
,262/4 หมู่ที่ 18,,262/4 หมู่ที่ 18 ตำบลป่าสัก อำเภอเมืองลำพูน จังหวัดลำพูน 51000,,ตลาดลำพูนจตุจักร,,เมืองลำพูน,,053-093-872,18.559278,99.037306,,ลำพูน,,ป่าสัก,,053-093-873,,09.00 - 17.00 น.,,09.00 - 15.00 น.,,จันทร์ - ศุกร์,,เสาร์,,HW-188,063-9010444,SOMWANG
,59/4 - 5 หมู่ที่ 1,,59/4 - 5 หมู่ที่ 1 แขวงสายไหม เขตสายไหม จังหวัดกรุงเทพฯ 10220,,ตลาดวงศกร (สายไหม),,สายไหม,,02-533-3015,13.92159,100.683614,,กรุงเทพมหานคร,,สายไหม,,02-533-3016,,09.00 - 17.00 น.,,09.00 - 15.00 น.,,จันทร์ - ศุกร์,,เสาร์,,HW-083,082-5638000,SOMWANG
,224/2 หมู่ที่ 7,,224/2 หมู่ที่ 7 ตำบลลำตาเสา อำเภอวังน้อย จังหวัดพระนครศรีอยุธยา 13170,,ตลาดสี่ขวา (อยุธยา),,วังน้อย,,063-905-7333,14.273505,100.683717,,อยุธยา,,ลำตาเสา,,035-246-427,,09.00 - 17.00 น.,,09.00 - 15.00 น.,,จันทร์ - ศุกร์,,เสาร์,,HW-337,063-905-7333,SOMWANG
,600/452-453 หมู่ที่ 8,,600/452-453 หมู่ที่ 8 ตำบลคูคต อำเภอลำลูกกา จังหวัดปทุมธานี 12130,,ตลาดสี่มุมเมือง,,ลำลูกกา,,02-536-6453,13.9637,100.6194,,ปทุมธานี,,คูคต,,02-536-6452,,09.00 - 17.00 น.,,09.00 - 15.00 น.,,จันทร์ - ศุกร์,,เสาร์,,HW-139,091-7737000,SOMWANG
,128/3 หมู่ที่ 7,,128/3 หมู่ที่ 7 ตำบลบ่อวิน อำเภอศรีราชา จังหวัดชลบุรี 20230,,ตลาดหนองก้างปลา (นิคมอีสเทิร์นซีบอร์ด),,ศรีราชา,,063-905-8111,13.039666,101.126979,,ชลบุรี,,บ่อวิน,,038-109-118,,09.00 - 17.00 น.,,09.00 - 15.00 น.,,จันทร์ - ศุกร์,,เสาร์,,HW-343,038-109-119,SOMWANG
,1/73 ถนนนครสวรรค์,,1/73 ถนนนครสวรรค์ ตำบลตลาด อำเภอเมืองมหาสารคาม จังหวัดมหาสารคาม 44000,,ตลาดเกษตรมหาสารคาม,,มหาสารคาม,,043-750-248,16.201214,103.263574,,มหาสารคาม,,ตลาด,,043-750-247,,09.00 - 17.00 น.,,09.00 - 15.00 น.,,จันทร์ - ศุกร์,,เสาร์,,HW-323,063-905-5522,SOMWANG
,2/19 ซอยมิตรภาพ15,,2/19 ซอยมิตรภาพ15 ตำบลในเมือง อำเภอเมือง จังหวัดนครราชสีมา 30000,,ตลาดเซฟวัน (นครราชสีมา),,เมือง,,044-211-753,14.956784,102.043744,,นครราชสีมา,,ในเมือง,,044-211-752,,09.00 - 17.00 น.,,09.00 - 15.00 น.,,จันทร์ - ศุกร์,,เสาร์,,HW-075,080-9588000,SOMWANG
,176 หมู่ที่ 10,,176 หมู่ที่ 10 ตำบลท่าแค อำเภอเมืองลพบุรี จังหวัดลพบุรี 15000,,ตลาดเสาธง (ลพบุรี),,เมืองลพบุรี,,036-486-239,14.885366,100.629138,,ลพบุรี,,ท่าแค,,036-486-238,,09.00 - 17.00 น.,,09.00 - 15.00 น.,,จันทร์ - ศุกร์,,เสาร์,,HW-301,091-889-6699,SOMWANG
,"1156 ,1158 ถนนศรีนครินทร์",,"1156 ,1158 ถนนศรีนครินทร์ แขวงสวนหลวง เขตสวนหลวง จังหวัดกรุงเทพฯ 10250",,ตลาดเอี่ยมสมบัติ,,สวนหลวง,,02-321-3493,13.713691,100.643199,,กรุงเทพมหานคร,,สวนหลวง,,02-321-3492,,09.00 - 17.00 น.,,09.00 - 15.00 น.,,จันทร์ - ศุกร์,,เสาร์,,HW-137,090-9807000,SOMWANG
,32/366 หมู่ที่ 9,,32/366 หมู่ที่ 9 ตำบลคลองหนึ่ง อำเภอคลองหลวง จังหวัดปทุมธานี 12120,,ตลาดไท,,คลองหลวง,,025-290-614,14.083333,100.624122,,ปทุมธานี,,คลองหนึ่ง,,025-290-613,,09.00 - 17.00 น.,,09.00 - 15.00 น.,,จันทร์ - ศุกร์,,เสาร์,,HW-045,084-7238000,SOMWANG
,26/6 ถนนเสนาราษฎร์,,26/6 ถนนเสนาราษฎร์ ตำบลตะกั่วป่า อำเภอตะกั่วป่า จังหวัดพังงา 82110,,ตะกั่วป่า,,ตะกั่วป่า,,076-424-753,8.869707,98.347933,,พังงา,,ตะกั่วป่า,,076-424-754,,09.00 - 17.00 น.,,09.00 - 15.00 น.,,จันทร์ - ศุกร์,,เสาร์,,HW-148,091-0099000,SOMWANG
,"211,213,215 ถนนรัฐราษฎร์รังสรรค์",,"211,213,215 ถนนรัฐราษฎร์รังสรรค์ ตำบลตะพานหิน อำเภอตะพานหิน จังหวัดพิจิตร 66110",,ตะพานหิน(พิจิตร),,ตะพานหิน,,056-621-994,16.221591,100.410437,,พิจิตร,,ตะพานหิน,,056-621-993,,09.00 - 17.00 น.,,09.00 - 15.00 น.,,จันทร์ - ศุกร์,,เสาร์,,HW-153,095-3704466,SOMWANG
,3/29 ถนนจอมพล,,3/29 ถนนจอมพล ตำบลหนองหลวง อำเภอเมืองตาก จังหวัดตาก 63000,,ตาก,,เมืองตาก,,055-513-115,16.877636,99.121813,,ตาก,,หนองหลวง,,055-513-114,,09.00 - 17.00 น.,,09.00 - 15.00 น.,,จันทร์ - ศุกร์,,เสาร์,,HW-089,084-0788000,SOMWANG
,"600,602 ถนนพหลโยธิน",,"600,602 ถนนพหลโยธิน ตำบลตาคลี อำเภอตาคลี จังหวัดนครสวรรค์ 60140",,ตาคลี,,ตาคลี,,056-265-873,15.2634262,100.3348638,,นครสวรรค์,,ตาคลี,,056-265-874,,09.00 - 17.00 น.,,09.00 - 15.00 น.,,จันทร์ - ศุกร์,,เสาร์,,HW-057,084-9648000,SOMWANG
,56/13 หมู่ที่ 12,,56/13 หมู่ที่ 12 ตำบลราชาเทวะ อำเภอบางพลี จังหวัดสมุทรปราการ 10540,,ถนนกิ่งแก้ว (สมุทรปราการ),,บางพลี,,021-305-348,"13.665639,",100.719167,,สมุทรปราการ,,ราชาเทวะ,,021-305-347,,09.00 - 17.00 น.,,09.00 - 15.00 น.,,จันทร์ - ศุกร์,,เสาร์,,HW-303,091-889-6677,SOMWANG
,72/10-11ก,,72/10-11ก ถนนชัยประสิทธิ์ ตำบลในเมือง อำเภอเมืองชัยภูมิ จังหวัดชัยภูมิ 36000,,ถนนชัยประสิทธิ์ (ชัยภูมิ),,เมืองชัยภูมิ,,044-817-452,15.812958,102.025851,,ชัยภูมิ,,ในเมือง,,044-817-451,,09.00 - 17.00 น.,,09.00 - 15.00 น.,,จันทร์ - ศุกร์,,เสาร์,,HW-256,091-889-3456,SOMWANG
,"21/2 ,21/3 ถนนธานี",,"21/2 ,21/3 ถนนธานี ตำบลในเมือง อำเภอเมืองบุรีรัมย์ จังหวัดบุรีรัมย์ 31000",,ถนนธานี (บุรีรัมย์),,เมืองบุรีรัมย์,,044-634-730,14.999555,103.108523,,บุรีรัมย์,,ในเมืือง,,044-634-877,,09.00 - 17.00 น.,,09.00 - 15.00 น.,,จันทร์ - ศุกร์,,เสาร์,,HW-270,091-889-4411,SOMWANG
,10/9 หมู่ที่ 1,,10/9 หมู่ที่ 1 ตำบลบางบัวทอง อำเภอบางบัวทอง จังหวัดนนทบุรี 11110,,ถนนบางกรวย-ไทรน้อย,,บางบัวทอง,,02-594-6901,13.935443,100.39655,,นนทบุรี,,บางบัวทอง,,02-594-6900,,09.00 - 17.00 น.,,09.00 - 15.00 น.,,จันทร์ - ศุกร์,,เสาร์,,HW-229,063-9050111,SOMWANG
,548/50-51 ถนนบางแค,,548/50-51 ถนนบางแค แขวงบางแค เขตบางแค จังหวัดกรุงเทพมหานคร 10160,,ถนนบางแค,,บางแค,,02-802-3362,13.700534,100.420706,,กรุงเทพมหานคร,,บางแค,,02-802-3363,,09.00 - 17.00 น.,,09.00 - 15.00 น.,,จันทร์ - ศุกร์,,เสาร์,,HW-103,091-8189000,SOMWANG
,261 ถนนประชาอุทิศ,,261 ถนนประชาอุทิศ แขวงราษฎร์บูรณะ เขตราษฎร์บูรณะ จังหวัดกรุงเทพฯ 10140,,ถนนประชาอุทิศ,,ราษฎร์บูรณะ,,02-428-8367,13.663306,100.503083,,กรุงเทพมหานคร,,ราษฎร์บูรณะ,,02-428-8366,,09.00 - 17.00 น.,,09.00 - 15.00 น.,,จันทร์ - ศุกร์,,เสาร์,,HW-173,063-9011515,SOMWANG
,273/23-24 หมู่ที่ 1,,273/23-24 หมู่ที่ 1 ตำบลสำโรงใต้ อำเภอพระประแดง จังหวัดสมุทรปราการ 10130,,ถนนปู่เจ้าสมิงพราย,,พระประแดง,,02-384-3558,13.644108,100.587205,,สมุทรปราการ,,สำโรงใต้,,02-384-3557,,09.00 - 17.00 น.,,09.00 - 15.00 น.,,จันทร์ - ศุกร์,,เสาร์,,HW-264,091-889-4321,SOMWANG
,"101/19 ,101/20 หมู่ที่ 4",,"101/19 ,101/20 หมู่ที่ 4 แขวงบางชัน เขตคลองสามวา จังหวัดกรุงเทพฯ 10510",,ถนนพระยาสุเรนทร์,,คลองสามวา,,02-540-1969,13.826243,100.699139,,กรุงเทพมหานคร,,บางชัน,,02-540-1968,,09.00 - 17.00 น.,,09.00 - 15.00 น.,,จันทร์ - ศุกร์,,เสาร์,,HW-250,063-905-3999,SOMWANG
,625/15-16 ถนนพรานนก,,625/15-16 ถนนพรานนก แขวงบ้านช่างหล่อ เขตบางกอกน้อย จังหวัดกรุงทพฯ 10700,,ถนนพรานนก,,บางกอกน้อย,,02-418-0794,13.75523,100.475764,,กรุงเทพมหานคร,,บ้านช่างหล่อ,,02-418-0795,,09.00 - 17.00 น.,,09.00 - 15.00 น.,,จันทร์ - ศุกร์,,เสาร์,,HW-097,091-8895000,SOMWANG
,43-45 ถนนภิรมย์,,43-45 ถนนภิรมย์ ตำบลกาฬสินธุ์ อำเภอเมืองกาฬสินธุ์ จังหวัดกาฬสินธุ์ 46000,,ถนนภิรมย์ (กาฬสินธุ์),,เมืองกาฬสินธุ์,,063-905-7222,16.433012,103.504468,,ขอนแก่น,,กาฬสินธุ์,,043-840-840,,09.00 - 17.00 น.,,09.00 - 15.00 น.,,จันทร์ - ศุกร์,,เสาร์,,HW-335,063-905-7222,SOMWANG
,403 ถนนมิตรภาพ-หนองคาย,,403 ถนนมิตรภาพ-หนองคาย ตำบลในเมือง อำเภอเมืองนครราชสีมา จังหวัดนครราชสีมา 30000,,ถนนมิตรภาพ (ปตท.ดาวเจริญ),,เมืองนครราชสีมา,,044-923-196,14.989258,102.096279,,นครราชสีมา,,ในเมือง,,044-923-195,,09.00 - 17.00 น.,,09.00 - 15.00 น.,,จันทร์ - ศุกร์,,เสาร์,,HW-076,080-9538000,SOMWANG
,2/36 ถนนราชการดำเนิน,,2/36 ถนนราชการดำเนิน ตำบลในเมือง อำเภอเมืองร้อยเอ็ด จังหวัดร้อยเอ็ด 45000,,ถนนราชการดำเนิน (ร้อยเอ็ด),,เมืองร้อยเอ็ด,,043-518-132,16.046506,103.636973,,ร้อยเอ็ด,,ในเมือง,,043-518-131,,09.00 - 17.00 น.,,09.00 - 15.00 น.,,จันทร์ - ศุกร์,,เสาร์,,HW-278,091-889-4888,SOMWANG
,211 ถนนลาดกระบัง,,211 ถนนลาดกระบัง แขวงลาดกระบัง เขตลาดกระบัง จังหวัดกรุงเทพฯ 10520,,ถนนลาดกระบัง(ตลาดนำชัย),,ลาดกระบัง,,02-136-6709,13.722291,100.711339,,กรุงเทพมหานคร,,ลาดกระบัง,,02-136-6708,,09.00 - 17.00 น.,,09.00 - 15.00 น.,,จันทร์ - ศุกร์,,เสาร์,,HW-238,063-9048666,SOMWANG
,383 ถนนลาดปลาเค้า,,383 ถนนลาดปลาเค้า แขวงจรเข้บัว เขตลาดพร้าว จังหวัดกรุงเทพฯ 10230,,ถนนลาดปลาเค้า,,ลาดพร้าว,,02-570-1589,13.846191,100.602391,,กรุงเทพฯ,,จรเข้บัว,,02-570-1588,,09.00 - 17.00 น.,,09.00 - 15.00 น.,,จันทร์ - ศุกร์,,เสาร์,,HW-271,091-889-4555,SOMWANG
,"178,180 ถนนวัชรพล",,"178,180 ถนนวัชรพล แขวงท่าแร้ง เขตบางเขน จังหวัดกรุงเทพฯ 10230",,ถนนวัชรพล,,บางเขน,,02-510-0336,13.857861,100.640889,,กรุงเทพมหานคร,,ท่าแร้ง,,02-510-0335,,09.00 - 17.00 น.,,09.00 - 15.00 น.,,จันทร์ - ศุกร์,,เสาร์,,HW-174,091-7703000,SOMWANG
,"386/3, 386/4 ถนนวิทยะธำรงค์",,"386/3, 386/4 ถนนวิทยะธำรงค์ ตำบลในเมือง อำเภอเมืองยโสธร จังหวัดยโสธร 35000",,ถนนวิทยะธำรงค์ (ยโสธร),,ยโสธร,,045-711-449,15.801194,104.151301,,ยโสธร,,ในเมือง,,045-711-448,,09.00 - 17.00 น.,,09.00 - 15.00 น.,,จันทร์ - ศุกร์,,เสาร์,,HW-321,063-905-5552,SOMWANG
,659/24-25 ถนนสาธุประดิษฐ์,,659/24-25 ถนนสาธุประดิษฐ์ แขวงบางโพงพาง เขตยานนาวา จังหวัดกรุงเทพฯ 10120,,ถนนสาธุประดิษฐ์ (ยานนาวา),,ยานนาวา,,02-294-2010,13.683486,100.532274,,กรุงเทพมหานคร,,บางโพงพาง,,02-294-2009,,09.00 - 17.00 น.,,09.00 - 15.00 น.,,จันทร์ - ศุกร์,,เสาร์,,HW-093,083-0994000,SOMWANG
,"655 ,657 ถนนสามัคคี",,"655 ,657 ถนนสามัคคี ตำบลท่าทราย อำเภอเมืองนนทบุรี จังหวัดนนทบุรี 11000",,ถนนสามัคคี,,เมืองนนทบุรี,,02-573-8539,13.881222,100.538861,,นนทบุรี,,ท่าทราย,,02-573-8538,,09.00 - 17.00 น.,,09.00 - 15.00 น.,,จันทร์ - ศุกร์,,เสาร์,,HW-159,091-7711414,SOMWANG
,26/7 ถนนหลักเมือง,,26/7 ถนนหลักเมือง ตำบลในเมือง อำเภอเมืองสุรินทร์ จังหวัดสุรินทร์ 32000,,ถนนหลักเมือง (สุรินทร์),,เมืองสุรินทร์,,044-511-509,14.873472,103.506532,,สุรินทร์,,ในเมือง,,044-511-508,,09.00 - 17.00 น.,,09.00 - 15.00 น.,,จันทร์ - ศุกร์,,เสาร์,,HW-319,063-905-4222,SOMWANG
,"399/27, 399/28 หมู่ที่ 11",,"399/27, 399/28 หมู่ที่ 11 ตำบลหนองขาม อำเภอศรีราชา จังหวัดชลบุรี 20230",,ถนนเครือสหพัฒน์ (ศรีราชา),,ศรีราชา,,038-480-312,13.099695,100.953279,,ชลบุรี,,หนองขาม,,038-480-311,,09.00 - 17.00 น.,,09.00 - 15.00 น.,,จันทร์ - ศุกร์,,เสาร์,,HW-070,080-3018000,SOMWANG
,1541/4-5 หมู่ที่ 6,,1541/4-5 หมู่ที่ 6 ตำบลเทพารักษ์ อำเภอเมืองสมุทรปราการ จังหวัดสมุทรปราการ 10270,,ถนนเทพารักษ์,,เมืองสมุทรปราการ,,02-385-2014,13.619139,100.646889,,สมุทรปราการ,,เทพารักษ์,,02-385-2015,,09.00 - 17.00 น.,,09.00 - 15.00 น.,,จันทร์ - ศุกร์,,เสาร์,,HW-171,063-901-1616,SOMWANG
,233 ถนนเอกชัย,,233 ถนนเอกชัย แขวงบางบอน เขตบางบอน จังหวัดกรุงเทพฯ 10150,,ถนนเอกชัย(บางบอน),,บางบอน,,02-416-7387,13.681484,100.439418,,กรุงเทพมหานคร,,บางบอน,,02-416-7386,,09.00 - 17.00 น.,,09.00 - 15.00 น.,,จันทร์ - ศุกร์,,เสาร์,,HW-090,083-9278000,SOMWANG
,"304 ,306 ถนนโชคชัย 4",,"304 ,306 ถนนโชคชัย 4 แขวงลาดพร้าว เขตลาดพร้าว จังหวัดกรุงเทพฯ 10230",,ถนนโชคชัย 4,,ลาดพร้าว,,02-539-9275,13.808194,100.5965,,กรุงเทพมหานคร,,ลาดพร้าว,,02-539-9274,,09.00 - 17.00 น.,,09.00 - 15.00 น.,,จันทร์ - ศุกร์,,เสาร์,,HW-172,090-9806996,SOMWANG
,148 หมู่ที่ 1,,148 หมู่ที่ 1 ตำบลเทพกระษัตรี อำเภอถลาง จังหวัดภูเก็ต 83110,,ถลาง(ภูเก็ต),,ถลาง,,076-313-536,8.028168,98.333021,,ภูเก็ต,,เทพกระษัตรี,,076-313-535,,09.00 - 17.00 น.,,09.00 - 15.00 น.,,จันทร์ - ศุกร์,,เสาร์,,HW-104,091-8909000,SOMWANG
,26/11-12 หมู่ที่ 6,,26/11-12 หมู่ที่ 6 ตำบลทับสะแก อำเภอทับสะแก จังหวัดประจวบคีรีขันธ์ 77130,,ทับสะแก (ประจวบคีรีขันธ์),,ทับสะแก,,032-510-366,11.503258,99.610072,,ประจวบคีรีขันธ์,,ทับสะแก,,032-510-365,,09.00 - 17.00 น.,,09.00 - 15.00 น.,,จันทร์ - ศุกร์,,เสาร์,,HW-286,091-889-5566,SOMWANG
,42/7 ถนนทุ่งสง-ห้วยยอด,,42/5 ถนนทุ่งสง-ห้วยยอด ตำบลปากแพรก อำเภอทุ่งสง จังหวัดนครศรีธรรมราช 80110,,ทุ่งสง,,ทุ่งสง,,075-421-598,8.162662,99.675124,,นครศรีธรรมราช,,ปากแพรก,,075-421-597,,09.00 - 17.00 น.,,09.00 - 15.00 น.,,จันทร์ - ศุกร์,,เสาร์,,HW-017,080-2955000,SOMWANG
,295/9 หมู่ที่ 2,,295/9 หมู่ที่ 2 ตำบลท่าทองใหม่ อำเภอกาญจนดิษฐ์ จังหวัดสุราษฎร์ธานี 84290,,ท่าทองใหม่ (สุราษฎร์ธานี),,กาญจนดิษฐ์,,077-313-709,9.148176,99.392784,,สุราษฎร์ธานี,,ท่าทองใหม่,,077-313-708,,09.00 - 17.00 น.,,09.00 - 15.00 น.,,จันทร์ - ศุกร์,,เสาร์,,HW-315,063-905-4666,SOMWANG
,19/17-18 หมู่ที่ 5,,19/17-18 หมู่ที่ 5 ตำบลสวนใหญ่ อำเภอเมืองนนทบุรี จังหวัดนนทบุรี 11000,,ท่าน้ำนนท์,,เมืองนนทบุรี,,02-526-8971,13.839557,100.496694,,นนทบุรี,,สวนใหญ่,,02-526-8970,,09.00 - 17.00 น.,,09.00 - 15.00 น.,,จันทร์ - ศุกร์,,เสาร์,,HW-095,083-0975000,SOMWANG
,50/80 หมู่ที่ 3,,50/80 หมู่ที่ 3 ตำบลท่ามะกา อำเภอท่ามะกา จังหวัดกาญจนบุรี 71120,,ท่ามะกา(กาญจนบุรี),,ท่ามะกา,,034-694-034,13.91575,99.768361,,กาญจนบุรี,,ท่ามะกา,,034-694-033,,09.00 - 17.00 น.,,09.00 - 15.00 น.,,จันทร์ - ศุกร์,,เสาร์,,HW-175,091-0097888,SOMWANG
,607 หมู่ที่ 2,,607 หมู่ที่ 2 ตำบลท่ามะเขือ อำเภอคลองขลุง จังหวัดกำแพงเพชร 62120,,ท่ามะเขือ (กำแพงเพชร),,คลองขลุง,,055-863-321,16.233742,99.732873,,กำแพงเพชร,,ท่ามะเขือ,,055-863-320,,09.00 - 17.00 น.,,09.00 - 15.00 น.,,จันทร์ - ศุกร์,,เสาร์,,HW-267,091-889-4466,SOMWANG
,"129/9 ,129/10 หมู่ที่ 1",,"129/9 ,129/10 หมู่ที่ 1 ตำบลท่าม่วง อำเภอท่าม่วง จังหวัดกาญจนบุรี 71110",,ท่าม่วง,,ท่าม่วง,,034-611-352,13.966286,99.637581,,กาญจนบุรี,,ท่าม่วง,,034-611-351,,09.00 - 17.00 น.,,09.00 - 15.00 น.,,จันทร์ - ศุกร์,,เสาร์,,HW-216,063-9046999,SOMWANG
,407/3 หมู่ที่ 1,,407/3 หมู่ที่ 1 ตำบลท่ายาง อำเภอท่ายาง จังหวัดเพชรบุรี 76130,,ท่ายาง,,ท่ายาง,,032-463-862,12.973156,99.895215,,เพชรบุรี,,ท่ายาง,,032-463-861,,09.00 - 17.00 น.,,09.00 - 15.00 น.,,จันทร์ - ศุกร์,,เสาร์,,HW-204,096-8236200,SOMWANG
,"458,460 หมู่ที่ 1",,"458,460 หมู่ที่ 1 ตำบลท่าศาลา อำเภอท่าศาลา จังหวัดนครศรีธรรมราช 80160",,ท่าศาลา,,ท่าศาลา,,075-521-788,8.664341,99.923105,,นครศรีธรรมราช,,ท่าศาลา,,075-521-787,,09.00 - 17.00 น.,,09.00 - 15.00 น.,,จันทร์ - ศุกร์,,เสาร์,,HW-112,091-7715000,SOMWANG
,169/9 หมู่ที่ 4,,169/9 หมู่ที่ 4 ตำบลบางรักน้อย อำเภอเมืองนนทบุรี จังหวัดนนทบุรี 11000,,ท่าอิฐ (นนทบุรี),,เมืองนนทบุรี,,063-905-7666,13.882009,100.458109,,รัตนาธิเบศร์,,บางรักน้อย,,021-495-268,,09.00 - 17.00 น.,,09.00 - 15.00 น.,,จันทร์ - ศุกร์,,เสาร์,,HW-340,063-905-7666,SOMWANG
,393 หมู่ที่ 10,,393 หมู่ที่ 10 ตำบลธาตุพนม อำเภอธาตุพนม จังหวัดนครพนม 48110,,ธาตุพนม,,ธาตุพนม,,042-532-123,16.938899,104.722748,,นครพนม,,ธาตุพนม,,042-532-121,,09.00 - 17.00 น.,,09.00 - 15.00 น.,,จันทร์ - ศุกร์,,เสาร์,,HW-124,091-8892000,SOMWANG
,64/18 หมู่ที่ 3,,64/18 หมู่ที่ 3 ตำบลบางกระเบา อำเภอนครชัยศรี จังหวัดนครปฐม 73120,,นครชัยศรี (นครปฐม),,นครชัยศรี,,034-310-986,13.799842,100.180225,,นครปฐม,,บางกระเบา,,034-310-983,,09.00 - 17.00 น.,,09.00 - 15.00 น.,,จันทร์ - ศุกร์,,เสาร์,,HW-251,063-905-3888,SOMWANG
,ข1-306/10-11,,ข1-306/10-11 ถนนสุวรรณศร ตำบลนครนายก อำเภอเมืองนครนายก จังหวัดนครนายก 26000,,นครนายก,,เมืองนครนายก,,037-314-429,14.207017,101.209553,,นครนายก,,นครนายก,,037-314-428,,09.00 - 17.00 น.,,09.00 - 15.00 น.,,จันทร์ - ศุกร์,,เสาร์,,HW-052,084-7648000,SOMWANG
,141/4 ถนนราชวิถี,,141/4 ถนนราชวิถี ตำบลพระปฐมเจดีย์ อำเภอเมืองนครปฐม จังหวัดนครปฐม 73000,,นครปฐม,,เมืองนครปฐม,,034-271-506,13.816417,100.053889,,นครปฐม,,พระปฐมเจดีย์,,034-271-505,,09.00 - 17.00 น.,,09.00 - 15.00 น.,,จันทร์ - ศุกร์,,เสาร์,,HW-167,063-9010488,SOMWANG
,401/2 ถนนอภิบาลบัญชา,,401/2 ถนนอภิบาลบัญชา ตำบลในเมือง อำเภอเมืองนครพนม จังหวัดนครพนม 48000,,นครพนม,,เมืองนครพนม,,042-512-438,17.400865,104.784137,,นครพนม,,ในเมือง,,042-512-437,,09.00 - 17.00 น.,,09.00 - 15.00 น.,,จันทร์ - ศุกร์,,เสาร์,,HW-065,084-9268000,SOMWANG
,57 - 59 ถนนจอมสุรางค์ยาต,,57 - 59 ถนนจอมสุรางค์ยาตร์ ตำบลในเมือง อำเภอเมือง จังหวัดนครราชสีมา 30000,,นครราชสีมา,,นครราชสีมา,,044-342-316,14.972877,102.095686,,นครราชสีมา,,ในเมือง,,044-342-315,,09.00 - 17.00 น.,,09.00 - 15.00 น.,,จันทร์ - ศุกร์,,เสาร์,,HW-025,089-0365000,SOMWANG
,1410/9-10 ถนนศรีปราชญ์,,1410/9-10 ถนนศรีปราชญ์ ตำบลท่าวัง อำเภอเมืองนครศรีธรรมราช จังหวัดนครศรีธรรมราช 80000,,นครศรีธรรมราช,,เมืองนครศรีธรรมราช,,075-357-364,8.441497,99.962769,,นครศรีธรรมราช,,ท่าวัง,,075 357 361,,09.00 - 17.00 น.,,09.00 - 15.00 น.,,จันทร์ - ศุกร์,,เสาร์,,HW-030,063-9055000,SOMWANG
,804/112-113 หมู่ที่ 10,,804/112-113 หมู่ที่ 10 ตำบลนครสวรรค์ตก อำเภอเมืองนครสวรรค์ จังหวัดนครสวรรค์ 60000,,นครสวรรค์,,นครสวรรค์,,056-223-981,15.710932,100.119983,,นครสวรรค์,,นครสวรรค์ตก,,056-223-980,,09.00 - 17.00 น.,,09.00 - 15.00 น.,,จันทร์ - ศุกร์,,เสาร์,,HW-011,087-9605000,SOMWANG
,238 หมู่ที่ 3,,238 หมู่ที่ 3 ตำบลนครไทย อำเภอนครไทย จังหวัดพิษณุโลก 65120,,นครไทย,,นครไทย,,055-389-227,17.100611,100.836448,,พิษณุโลก,,นครไทย,,055-389-226,,09.00 - 17.00 น.,,09.00 - 15.00 น.,,จันทร์ - ศุกร์,,เสาร์,,HW-221,063-9049666,SOMWANG
,73/183 หมู่19,,73/183 หมู่19 ตำบลคลองหนึ่ง อำเภอคลองหลวง จังหวัดปทุมธานี 12120,,นวนคร,,คลองหลวง,,02-529-1097,14.112395,100.59878,,ปทุมธานี,,คลองหนึ่ง,,02-529-1096,,09.00 - 17.00 น.,,09.00 - 15.00 น.,,จันทร์ - ศุกร์,,เสาร์,,HW-085,082-9508000,SOMWANG
,417 ถนนโชคชัย-เดชอุดม,,417 ถนนโชคชัย-เดชอุดม ตำบลนางรอง อำเภอนางรอง จังหวัดบุรีรัมย์ 31110,,นางรอง,,นางรอง,,044-631-034,14.633532,102.792701,,บุรีรัมย์,,นางรอง,,044-631-033,,09.00 - 17.00 น.,,09.00 - 15.00 น.,,จันทร์ - ศุกร์,,เสาร์,,HW-143,091-8897000,SOMWANG
,199/1-2 หมู่ที่ 4,,199/1-2 หมู่ที่ 4 ตำบลนาทวี อำเภอนาทวี จังหวัดสงขลา 90160,,นาทวี,,นาทวี,,074-373-628,6.7443291,100.6873202,,สงขลา,,นาทวี,,074-373-627,,09.00 - 17.00 น.,,09.00 - 15.00 น.,,จันทร์ - ศุกร์,,เสาร์,,HW-141,091-7747000,SOMWANG
,11/11-12 หมู่ที่ 1,,11/11-12 หมู่ที่ 1 ตำบลนายายอาม อำเภอนายายอาม จังหวัดจันทบุรี 22160,,นายายอาม (จันทบุรี),,นายายอาม,,039-480-720,12.779298,101.82277,,จัันทบุรี,,นายายอาม,,039-480-719,,09.00 - 17.00 น.,,09.00 - 15.00 น.,,จันทร์ - ศุกร์,,เสาร์,,HW-284,091-889-5533,SOMWANG
,"199/42 (ห้อง 9),199/43 (ห้อง 10) หมู่ที่ 2",,"199/42 (ห้อง 9),199/43 (ห้อง 10) หมู่ที่ 2 ตำบลนิคมพัฒนา อำเภอนิคมพัฒนา จังหวัดระยอง 21180",,นิคมพัฒนา,,นิคมพัฒนา,,038-020-152,12.827824,101.201683,,ระยอง,,นิคมพัฒนา,,038-020-151,,09.00 - 17.00 น.,,09.00 - 15.00 น.,,จันทร์ - ศุกร์,,เสาร์,,HW-228,063-9049444,SOMWANG
,633/5-6 หมู่ที่ 10,,633/5-6 หมู่ที่ 10 ตำบลท่าตูม อำเภอศรีมหาโพธิ จังหวัดปราจีนบุรี 25140,,นิคมอุตสาหกรรม304,,ศรีมหาโพธิ,,037-210-437,13.898805,101.578006,,ปราจีนบุรี,,ท่าตูม,,037-210-436,,09.00 - 17.00 น.,,09.00 - 15.00 น.,,จันทร์ - ศุกร์,,เสาร์,,HW-105,091-7701000,SOMWANG
,888/35 หมู่ที่ 6,,888/35 หมู่ที่ 6 ตำบลแพรกษา อำเภอเมืองสมุทรปราการ จังหวัดสมุทรปราการ 10280,,นิคมอุตสาหกรรมบางปู,,เมืองสมุทรปราการ,,02-324-3346,13.564749,100.671371,,สมุทรปราการ,,แพรกษา,,02-324-3345,,09.00 - 17.00 น.,,09.00 - 15.00 น.,,จันทร์ - ศุกร์,,เสาร์,,HW-128,091-7706000,SOMWANG
,123/7 ถนนฉลองกรุง,,123/7 ถนนฉลองกรุง แขวงลำปลาทิว เขตลาดกระบัง จังหวัดกรุงเทพฯ 10520,,นิคมอุตสาหกรรมลาดกระบัง,,ลาดกระบัง,,02-326-1257,13.756036,100.797662,,กรุงเทพมหานคร,,ลำปลาทิว,,02-326-1256,,09.00 - 17.00 น.,,09.00 - 15.00 น.,,จันทร์ - ศุกร์,,เสาร์,,HW-140,083-0977000,SOMWANG
,21/25 ถนนข้าหลวง,,21/25 ถนนข้าหลวง ตำบลในเวียง อำเภอเมืองน่าน จังหวัดน่าน 55000,,น่าน,,เมืองน่าน,,054-775-136,18.78,100.777889,,น่าน,,ในเวียง,,054-775-135,,09.00 - 17.00 น.,,09.00 - 15.00 น.,,จันทร์ - ศุกร์,,เสาร์,,HW-183,063-9011511,SOMWANG
,700/40 หมู่ที่ 1,,700/40 หมู่ที่ 1 ตำบลหนองกุง อำเภอน้ำพอง จังหวัดขอนแก่น 40140,,น้ำพอง,,น้ำพอง,,043-431-461,16.712552,102.867981,,ขอนแก่น,,หนองกุง,,043-431-460,,09.00 - 17.00 น.,,09.00 - 15.00 น.,,จันทร์ - ศุกร์,,เสาร์,,HW-231,063-9047444,SOMWANG
,160/1 หมู่ที่ 1,,160/1 หมู่ที่ 1 ตำบลนางัว อำเภอน้ำโสม จังหวัดอุดรธานี 41210,,น้ำโสม (อุดรธานี),,น้ำโสม,,042-217-504,17.767157,102.189026,,อุดรธานี,,นางัว,,042-217-503,,09.00 - 17.00 น.,,09.00 - 15.00 น.,,จันทร์ - ศุกร์,,เสาร์,,HW-299,091-889-6644,SOMWANG
,220/5 หมู่ที่ 3,,220/5 หมู่ที่ 3 ตำบลหนองสิม อำเภอบรบือ จังหวัดมหาสารคาม 44130,,บรบือ(มหาสารคาม),,บรบือ,,043-770-278,16.043531,103.11109,,มหาสารคาม,,หนองสิม,,043-770-277,,09.00 - 17.00 น.,,09.00 - 15.00 น.,,จันทร์ - ศุกร์,,เสาร์,,HW-236,063-9048999,SOMWANG
,85 ถนนนิเวศรัตน์,,85 ถนนนิเวศรัตน์ ตำบลบัวใหญ่ อำเภอบัวใหญ่ จังหวัดนครราชสีมา 30120,,บัวใหญ่,,บัวใหญ่,,044-913-689,15.587285,102.425295,,นครราชสีมา,,บัวใหญ่,,044-913-690,,09.00 - 17.00 น.,,09.00 - 15.00 น.,,จันทร์ - ศุกร์,,เสาร์,,HW-198,095-3705800,SOMWANG
,105/9 หมู่ที่ 10,,105/9 หมู่ที่ 10 ตำบลบางครุ อำเภอพระประแดง จังหวัดสมุทรปราการ 10130,,บางครุ (พระประแดง),,พระประแดง,,02-463-8926,13.637938,100.526996,,สมุทรปราการ,,บางครุ,,02-463-8925,,09.00 - 17.00 น.,,09.00 - 15.00 น.,,จันทร์ - ศุกร์,,เสาร์,,HW-080,080-9648000,SOMWANG
,"295 ,297 ถนนกรุงเทพ-นนทบุรี",,"295 ,297 ถนนกรุงเทพ-นนทบุรี แขวงบางซื่อ เขตบางซื่อ จังหวัดกรุงเทพฯ 10800",,บางซื่อ,,บางซื่อ,,02-587-9879,13.809111,100.531028,,กรุงเทพมหานคร,,บางซื่อ,,02-587-9878,,09.00 - 17.00 น.,,09.00 - 15.00 น.,,จันทร์ - ศุกร์,,เสาร์,,HW-185,095-2055002,SOMWANG
,28/23 หมู่ที่ 4,,28/23 หมู่ที่ 4 ตำบลโสนลอย อำเภอบางบัวทอง จังหวัดนนทบุรี 11110,,บางบัวทอง,,บางบัวทอง,,02-571-3197,13.914139,100.422891,,นนทบุรี,,โสนลอย,,02-571-3196,,09.00 - 17.00 น.,,09.00 - 15.00 น.,,จันทร์ - ศุกร์,,เสาร์,,HW-106,091-7741000,SOMWANG
,407/10-11 หมู่ที่ 1,,407/10-11 หมู่ที่ 1 ตำบลบางบ่อ อำเภอบางบ่อ จังหวัดสมุทรปราการ 10560,,บางบ่อ,,บางบ่อ,,02-338-1160,13.58327,100.836227,,สมุทรปราการ,,บางบ่อ,,02-338-1161,,09.00 - 17.00 น.,,09.00 - 15.00 น.,,จันทร์ - ศุกร์,,เสาร์,,HW-135,091-7707000,SOMWANG
,51/45 หมู่ที่ 14,,51/45 หมู่ที่ 14 ตำบลบางวัว อำเภอบางปะกง จังหวัดฉะเชิงเทรา 24180,,บางปะกง(ฉะเชิงเทรา),,บางปะกง,,038-540-547,13.5421225,100.9705537,,ฉะเชิงเทรา,,บางวัว,,038-540-546,,09.00 - 17.00 น.,,09.00 - 15.00 น.,,จันทร์ - ศุกร์,,เสาร์,,HW-154,063-9010404,SOMWANG
,24/7 หมู่ที่ 5,,24/7 หมู่ที่ 5 ตำบลขวัญเมือง อำเภอบางปะหัน จังหวัดพระนครศรีอยุธยา 13220,,บางปะหัน,,บางปะหัน,,035-301-201,14.464278,100.540944,,พระนครศรีอยุธยา,,ขวัญเมือง,,035-301-202,,09.00 - 17.00 น.,,09.00 - 15.00 น.,,จันทร์ - ศุกร์,,เสาร์,,HW-165,091-7726999,SOMWANG
,80/54 หมู่ที่ 11,,80/54 หมู่ที่ 11 ตำบลบ้านเลน อำเภอบางปะอิน จังหวัดพระนครศรีอยุธยา 13160,,บางปะอิน,,บางปะอิน,,035-262-439,14.218452,100.579795,,พระนครศรีอยุธยา,,บ้านเลน,,035-262-373,,09.00 - 17.00 น.,,09.00 - 15.00 น.,,จันทร์ - ศุกร์,,เสาร์,,HW-136,091-7716000,SOMWANG
,"126/15 ,126/16 หมู่ที่ 1",,"126/15 ,126/16 หมู่ที่ 1 ตำบลบางเสาธง อำเภอบางเสาธง จังหวัดสมุทรปราการ 10570",,บางพลี,,บางเสาธง,,02-313-1226,13.588306,100.788145,,สมุทรปราการ,,บางเสาธง,,02-313-1225,,09.00 - 17.00 น.,,09.00 - 15.00 น.,,จันทร์ - ศุกร์,,เสาร์,,HW-201,096-8046700,SOMWANG
,191/17 หมู่ที่ 7,,191/17 หมู่ที่ 7 ตำบลบางระกำ อำเภอบางระกำ จังหวัดพิษณุโลก 65140,,บางระกำ (พิษณุโลก),,บางระกำ,,055-371-712,16.753542,100.115232,,พิษณุโลก,,บางระกำ,,055-371-711,,09.00 - 17.00 น.,,09.00 - 15.00 น.,,จันทร์ - ศุกร์,,เสาร์,,HW-313,063-905-4333,SOMWANG
,87/13 หมู่ที่ 1,,87/13 หมู่ที่ 1 ตำบลกำเนิดนพคุณ อำเภอบางสะพาน จังหวัดประจวบคีรีขันธ์ 77140,,บางสะพาน,,บางสะพาน,,032-691-218,11.20988,99.50996,,ประจวบคีรีขันธ์,,กำเนิดนพคุณ,,032-691-217,,09.00 - 17.00 น.,,09.00 - 15.00 น.,,จันทร์ - ศุกร์,,เสาร์,,HW-151,091-7711144,SOMWANG
,99/16 หมู่ที่ 7,,99/16 หมู่ที่ 7 ตำบลบางโฉลง อำเภอบางพลี จังหวัดสมุทรปราการ 10540,,บางโฉลง,,บางพลี,,02-337-1041,13.621375,100.76407,,สมุทรปราการ,,บางโฉลง,,02-337-1040,,09.00 - 17.00 น.,,09.00 - 15.00 น.,,จันทร์ - ศุกร์,,เสาร์,,HW-194,091-7711221,SOMWANG
,61/48 หมู่ที่ 6,,61/48 หมู่ที่ 6 ตำบลเสาธงหิน อำเภอบางใหญ่ จังหวัดนนทบุรี 11140,,บางใหญ่,,บางใหญ่,,02-595-0913,13.878945,100.406836,,นนทบุรี,,เสาธงหิน,,02-595-0912,,09.00 - 17.00 น.,,09.00 - 15.00 น.,,จันทร์ - ศุกร์,,เสาร์,,HW-027,082-6465000,SOMWANG
,121/2 หมู่ที่ 3,,121/2 หมู่ที่ 3 ตำบลบึง อำเภอศรีราชา จังหวัดชลบุรี 20230,,บึง (ตลาดวรกิจ),,ศรีราชา,,038-110-541,13.081416,100.99985,,ชลบุรี,,บึง,,038-110-540,,09.00 - 17.00 น.,,09.00 - 15.00 น.,,จันทร์ - ศุกร์,,เสาร์,,HW-314,063-904-4446,SOMWANG
,405/10-11 หมู่ที่ 1,,405/10-11 หมู่ที่ 1 ตำบลบึงกาฬ อำเภอเมือง จังหวัดบึงกาฬ 38000,,บึงกาฬ,,เมือง,,042-492-625,18.360689,103.647177,,บึงกาฬ,,บึงกาฬ,,042-492-624,,09.00 - 17.00 น.,,09.00 - 15.00 น.,,จันทร์ - ศุกร์,,เสาร์,,HW-088,085-5028000,SOMWANG
,139 หมู่ที่ 7,,139 หมู่ที่ 7 ตำบลซับสมอทอด อำเภอบึงสามพัน จังหวัดเพชรบูรณ์ 67160,,บึงสามพัน,,บึงสามพัน,,056-732-028,15.785283,101.005971,,เพชรบูรณ์,,ซับสมอทอด,,056-732-027,,09.00 - 17.00 น.,,09.00 - 15.00 น.,,จันทร์ - ศุกร์,,เสาร์,,HW-202,095-3725400,SOMWANG
,48/2-3 ถนนบุลำดวน,,48/2-3 ถนนบุลำดวน ตำบลในเมือง อำเภอเมืองบุรีรัมย์ จังหวัดบุรีรัมย์ 31000,,บุรีรัมย์,,บุรีรัมย์,,044-602-082,14.995469,103.09553,,บุรีรัมย์,,ในเมือง,,044-602-081,,09.00 - 17.00 น.,,09.00 - 15.00 น.,,จันทร์ - ศุกร์,,เสาร์,,HW-016,084-8752277,SOMWANG
,310/12 หมู่ 3,,310/12 หมู่ 3 ตำบลบ่อวิน อำเภอศรีราชา จังหวัดชลบุรี 20230,,บ่อวิน,,บ่อวิน,,038-337-339,13.035526,101.080862,,ชลบุรี,,บ่อวิน,,038-337-338,,09.00 - 17.00 น.,,09.00 - 15.00 น.,,จันทร์ - ศุกร์,,เสาร์,,HW-006,080-1625000,SOMWANG
,276/2 หมู่ 3,,276/2 หมู่ 3 ตำบลต้นเปา อำเภอสันกำแพง จังหวัดเชียงใหม่ 50130,,บ่อสร้าง (สันกำแพง),,สันกำแพง,,053-960-831,18.765076,99.079687,,เชียงใหม่,,ต้นเปา,,053-960-830,,09.00 - 17.00 น.,,09.00 - 15.00 น.,,จันทร์ - ศุกร์,,เสาร์,,HW-074,080-9238000,SOMWANG
,50/12 หมู่ที่ 5,,50/12 หมู่ที่ 5 ตำบลบ้านฉาง อำเภอบ้านฉาง จังหวัดระยอง 21130,,บ้านฉาง(ระยอง),,บ้านฉาง,,038-602-298,12.723028,101.051889,,ระยอง,,บ้านฉาง,,038-602-299,,09.00 - 17.00 น.,,09.00 - 15.00 น.,,จันทร์ - ศุกร์,,เสาร์,,HW-163,095-3714111,SOMWANG
,5/2 หมู่ที่ 10,,5/2 หมู่ที่ 10 ตรอกหนองหินเหนือพัฒนา ถนนจำปาพัฒนา ตำบลศรีสุทโธ อำเภอบ้านดุง จังหวัดอุดรธานี 41190,,บ้านดุง,,บ้านดุง,,042-271-159,17.697949,103.259348,,อุดรธานี,,ศรีสุทโธ,,042-271-158,,09.00 - 17.00 น.,,09.00 - 15.00 น.,,จันทร์ - ศุกร์,,เสาร์,,HW-152,063-9010499,SOMWANG
,3/48-49 ถนนบ้านบึง-บ้านค่าย,,3/48-49 ถนนบ้านบึง-บ้านค่าย ตำบลบ้านบึง อำเภอบ้านบึง จังหวัดชลบุรี 20170,,บ้านบึง,,บ้านบึง,,038-443-489,13.305232,101.122775,,ชลบุรี,,บ้านบึง,,038-443-488,,09.00 - 17.00 น.,,09.00 - 15.00 น.,,จันทร์ - ศุกร์,,เสาร์,,HW-117,091-7705000,SOMWANG
,"94/2 ,94/3 หมู่ที่ 10",,"94/2 ,94/3 หมู่ที่ 10 ตำบลบ้านผือ อำเภอบ้านผือ จังหวัดอุดรธานี 41160",,บ้านผือ,,บ้านผือ,,042-282-067,17.689028,102.466498,,อุดรธานี,,บ้านผือ,,042-282-066,,09.00 - 17.00 น.,,09.00 - 15.00 น.,,จันทร์ - ศุกร์,,เสาร์,,HW-219,063-9046888,SOMWANG
,"434 ,434/1 ถนนกาญจนวนิช",,"434 ,434/1 ถนนกาญจนวนิช ตำบลบ้านพรุ อำเภอหาดใหญ่ จังหวัดสงขลา 90250",,บ้านพรุ(สงขลา),,หาดใหญ่,,074-384-801,6.940778,100.470667,,สงขลา,,บ้านพรุ,,074-384-800,,09.00 - 17.00 น.,,09.00 - 15.00 น.,,จันทร์ - ศุกร์,,เสาร์,,HW-169,096-8090008,SOMWANG
,196 ถนนเทศบาล,,196 ถนนเทศบาล ตำบลบ้านหมี่ อำเภอบ้านหมี่ จังหวัดลพบุรี 15110,,บ้านหมี่ (ลพบุรี),,บ้านหมี่,,036-471-501,15.042705,100.543432,,ลพบุรี,,บ้านหมี่,,036-471-525,,09.00 - 17.00 น.,,09.00 - 15.00 น.,,จันทร์ - ศุกร์,,เสาร์,,HW-282,091-889-5111,SOMWANG
,161/13 หมู่ที่ 4,,161/13 หมู่ที่ 4 ตำบลนาจอมเทียน อำเภอสัตหีบ จังหวัดชลบุรี 20250,,บ้านอำเภอ (ชลบุรี),,สัตหีบ,,038-182-486,12.822392,100.916047,,ชลบุรี,,จอมเทียน,,038-182-485,,09.00 - 17.00 น.,,09.00 - 15.00 น.,,จันทร์ - ศุกร์,,เสาร์,,HW-324,063-905-5550,SOMWANG
,156/23 หมู่ที่ 2,,156/23 หมู่ที่ 2 ตำบลเพ อำเภอเมืองระยอง จังหวัดระยอง 21160,,บ้านเพ (ระยอง),,เมืองระยอง,,038-016-321,12.625136,101.433043,,ระยอง,,เพ,,038-016-320,,09.00 - 17.00 น.,,09.00 - 15.00 น.,,จันทร์ - ศุกร์,,เสาร์,,HW-285,091-889-5511,SOMWANG
,"458,459 หมู่ที่ 4",,"458,459 หมู่ที่ 4 ตำบลปากแรด อำเภอบ้านโป่ง จังหวัดราชบุรี 70110",,บ้านโป่ง,,บ้านโป่ง,,032-221-964,13.830256,99.868477,,ราชบุรี,,ปากแรด,,032-221-965,,09.00 - 17.00 น.,,09.00 - 15.00 น.,,จันทร์ - ศุกร์,,เสาร์,,HW-115,080-7295000,SOMWANG
,603/13 หมู่ที่ 1,,603/13 หมู่ที่ 1 ตำบลในเมือง อำเภอบ้านไผ่ จังหวัดขอนแก่น 40110,,บ้านไผ่,,บ้านไผ่,,043-273-335,16.061583,102.73033,,ขอนแก่น,,ในเมือง,,043-273-334,,09.00 - 17.00 น.,,09.00 - 15.00 น.,,จันทร์ - ศุกร์,,เสาร์,,HW-046,084-4718000,SOMWANG
,369 หมู่ที่ 1,,369 หมู่ที่ 1 ตำบลบ้านไร่ อำเภอบ้านไร่ จังหวัดอุทัยธานี 61140,,บ้านไร่ (อุทัยธานี),,บ้านไร่,,056-539-065,15.086108,99.520856,,อุทัยธานี,,บ้านไร่,,056-539-064,,09.00 - 17.00 น.,,09.00 - 15.00 น.,,จันทร์ - ศุกร์,,เสาร์,,HW-287,091-889-5577,SOMWANG
,6/2 ถนนปทุมสัมพันธ์,,6/2 ถนนปทุมสัมพันธ์ ตำบลบางปรอก อำเภอเมืองปทุมธานี จังหวัดปทุมธานี 12000,,ปทุมธานี,,เมืองปทุมธานี,,02-581-3293,14.018106,100.532604,,ปทุมธานี,,บางปรอก,,02-581-3292,,09.00 - 17.00 น.,,09.00 - 15.00 น.,,จันทร์ - ศุกร์,,เสาร์,,HW-114,083-0964000,SOMWANG
,"349/2, 349/3 หมู่ที่ 3",,"349/2, 349/3 หมู่ที่ 3 ตำบลนาหว้า อำเภอปทุมราชวงศา จังหวัดอำนาจเจริญ 37110",,ปทุมราชวงศา (อำนาจเจริญ),,ปทุมราชวงศา,,045-525-476,15.888238,104.917283,,อำนาจเจริญ,,นาหว้า,,045-525-475,,09.00 - 17.00 น.,,09.00 - 15.00 น.,,จันทร์ - ศุกร์,,เสาร์,,HW-347,063-905-8777,SOMWANG
,230/1 ถนนสละชีพ,,230/1 ถนนสละชีพ ตำบลประจวบคีรีขันธ์ อำเภอเมืองประจวบคีรีขันธ์ จังหวัดประจวบคีรีขันธ์ 77000,,ประจวบคีรีขันธ์,,เมืองประจวบคีรีขันธ์,,032-602-230,11.801611,99.798222,,ประจวบคีรีขันธ์,,ประจวบคีรีขันธ์,,032-602-229,,09.00 - 17.00 น.,,09.00 - 15.00 น.,,จันทร์ - ศุกร์,,เสาร์,,HW-184,091-8902727,SOMWANG
,528/4 หมู่ที่ 14,,528/4 หมู่ที่ 14 ตำบลประทาย อำเภอประทาย จังหวัดนครราชสีมา 30180,,ประทาย (นครราชสีมา),,ประทาย,,044-489-556,15.535523,102.72304,,นครราชสีมา,,ประทาย,,044-489-555,,09.00 - 17.00 น.,,09.00 - 15.00 น.,,จันทร์ - ศุกร์,,เสาร์,,HW-265,091-889-4111,SOMWANG
,"377 ,377/1 หมู่ที่ 2",,"377 ,377/1 หมู่ที่ 2 ตำบลประโคนชัย อำเภอประโคนชัย จังหวัดบุรีรัมย์ 31140",,ประโคนชัย,,ประโคนชัย,,044-670-547,14.610586,103.076016,,บุรีรัมย์,,ประโคนชัย,,044-670-546,,09.00 - 17.00 น.,,09.00 - 15.00 น.,,จันทร์ - ศุกร์,,เสาร์,,HW-205,096-8244490,SOMWANG
,339/2 ถนนราษฎรดำริ,,339/2 ถนนราษฎรดำริ ตำบลหน้าเมือง อำเภอเมือง จังหวัดปราจีนบุรี 25000,,ปราจีนบุรี,,เมือง,,037-214-490,14.064157,101.373112,,ปราจีนบุรี,,หน้าเมือง,,037-214-489,,09.00 - 17.00 น.,,09.00 - 15.00 น.,,จันทร์ - ศุกร์,,เสาร์,,HW-071,080-9218000,SOMWANG
,"99/97 ,99/98 หมู่ที่ 7",,"99/97 ,99/98 หมู่ที่ 7 ตำบลเขาน้อย อำเภอปราณบุรี จังหวัดประจวบคีรีขันธ์ 77120",,ปราณบุรี,,ปราณบุรี,,032-825-847,12.39538,99.919341,,ประจวบคีรีขันธ์,,เขาน้อย,,032-825-846,,09.00 - 17.00 น.,,09.00 - 15.00 น.,,จันทร์ - ศุกร์,,เสาร์,,HW-203,095-3708500,SOMWANG
,29-30 หมู่ที่ 2,,29-30 หมู่ที่ 2 ตำบลกังแอน อำเภอปราสาท จังหวัดสุรินทร์ 321405555,,ปราสาท,,ปราสาท,,044-552-162,14.63768,103.406316,,สุรินทร์,,กังแอน,,044-552-161,,09.00 - 17.00 น.,,09.00 - 15.00 น.,,จันทร์ - ศุกร์,,เสาร์,,HW-123,091-0095000,SOMWANG
,304/3 หมู่ที่ 6,,304/3 หมู่ที่ 6 ตำบลมาบยางพร อำเภอปลวกแดง จังหวัดระยอง 21140,,ปลวกแดง,,ปลวกแดง,,038-027-013,12.994185,101.131894,,ระยอง,,มาบยางพร,,038-027-030,,09.00 - 17.00 น.,,09.00 - 15.00 น.,,จันทร์ - ศุกร์,,เสาร์,,HW-091,085-5138000,SOMWANG
,138/5 ถนนอ่าวลึก-พระแสง,,138/5 ถนนอ่าวลึก-พระแสง ตำบลปลายพระยา อำเภอปลายพระยา จังหวัดกระบี่ 81160,,ปลายพระยา (กระบี่),,ปลายพระยา,,075-656-928,8.536635,98.866253,,กระบี่,,ปลายพระยา,,075-656-927,,09.00 - 17.00 น.,,09.00 - 15.00 น.,,จันทร์ - ศุกร์,,เสาร์,,HW-302,091-889-6688,SOMWANG
,824/4 หมู่ที่ 11,,824/4 หมู่ที่ 11 ตำบลเมืองปัก อำเภอปักธงชัย จังหวัดนครราชสีมา 30150,,ปักธงชัย,,ปักธงชัย,,044-441-254,14.724083,102.024417,,นครราชสีมา,,เมืองปัก,,044-441-255,,09.00 - 17.00 น.,,09.00 - 15.00 น.,,จันทร์ - ศุกร์,,เสาร์,,HW-119,091-8184000,SOMWANG
,"100, 102 ถนนหนองจิก",,"100, 102 ถนนหนองจิก ตำบลสะบารัง อำเภอเมืองปัตตานี จังหวัดปัตตานี 94000",,ปัตตานี,,เมืองปัตตานี,,073-330-763,6.864501,101.2399,,ปัตตานี,,สะบารัง,,073-330-746,,09.00 - 17.00 น.,,09.00 - 15.00 น.,,จันทร์ - ศุกร์,,เสาร์,,HW-329,063-905-5557,SOMWANG
,432/1 ถนนมิตรภาพ,,432/1 ถนนมิตรภาพ ตำบลปากช่อง อำเภอปากช่อง จังหวัดนครราชสีมา 30130,,ปากช่อง,,ปากช่อง,,044-315-128,14.699774,101.408531,,นครราชสีมา,,ปากช่อง,,044-315-127,,09.00 - 17.00 น.,,09.00 - 15.00 น.,,จันทร์ - ศุกร์,,เสาร์,,HW-007,084-4105000,SOMWANG
,926/6 ถนนมิตรภาพ,,926/6 ถนนมิตรภาพ ตำบลปากช่อง อำเภอปากช่อง จังหวัดนครราชสีมา 30130,,ปากช่อง 2,,ปากช่อง,,044-311-991,14.715869,101.429431,,นครราชสีมา,,ปากช่อง,,044-311-990,,09.00 - 17.00 น.,,09.00 - 15.00 น.,,จันทร์ - ศุกร์,,เสาร์,,HW-334,063-905-6444,SOMWANG
,299/5 หมู่ที่ 4,,299/5 หมู่ที่ 4 ตำบลดอนทราย อำเภอปากท่อ จังหวัดราชบุรี 70140,,ปากท่อ (ราชบุรี),,ปากท่อ,,032-720-562,13.366986,99.821357,,ราชบุุรี,,ดอนทราย,,032-720-561,,09.00 - 17.00 น.,,09.00 - 15.00 น.,,จันทร์ - ศุกร์,,เสาร์,,HW-281,091-889-5333,SOMWANG
,"458/18 ,458/19 ถนนสุขุมวิท",,"458/18 ,458/19 ถนนสุขุมวิท ตำบลปากน้ำ อำเภอเมืองสมุทรปราการ จังหวัดสมุทรปราการ 10270",,ปากน้ำ,,เมืองสมุทรปราการ,,02-395-1194,13.589208,100.609386,,สมุทรปราการ,,ปากน้ำ,,02-395-1195,,09.00 - 17.00 น.,,09.00 - 15.00 น.,,จันทร์ - ศุกร์,,เสาร์,,HW-197,095-3705700,SOMWANG
,"406/42 ,406/43 หมู่ที่ 5",,"406/42 ,406/43 หมู่ที่ 5 ตำบลเวียง อำเภอฝาง จังหวัดเชียงใหม่ 50110",,ฝาง,,ฝาง,,053-451-372,19.9149,99.209062,,เชียงใหม่,,เวียง,,053-451-371,,09.00 - 17.00 น.,,09.00 - 15.00 น.,,จันทร์ - ศุกร์,,เสาร์,,HW-217,063-9044499,SOMWANG
,735/3 หมู่ที่ 1,,735/3 หมู่ที่ 1 ตำบลพนมสารคาม อำเภอพนมสารคาม จังหวัดฉะเชิงเทรา 24120,,พนมสารคาม (ฉะเชิงเทรา),,พนมสารคาม,,038-554-534,13.744958,101.356869,,ฉะเชิงเทรา,,พนมสารคาม,,038-554-533,,09.00 - 17.00 น.,,09.00 - 15.00 น.,,จันทร์ - ศุกร์,,เสาร์,,HW-322,063-905-5551,SOMWANG
,"100/55 ,100/56 หมู่ที่ 6",,"100/55 ,100/56 หมู่ที่ 6 ตำบลกุฎโง้ง อำเภอพนัสนิคม จังหวัดชลบุรี 20140",,พนัสนิคม(ชลบุรี),,พนัสนิคม,,038-463-032,13.459141,101.173375,,ชลบุรี,,กุฎโง้ง,,038-463-031,,09.00 - 17.00 น.,,09.00 - 15.00 น.,,จันทร์ - ศุกร์,,เสาร์,,HW-241,063-9050555,SOMWANG
,297 หมู่ที่ 1,,297 หมู่ที่ 1 ตำบลปะหลาน อำเภอพยัคฆภูมิพิสัย จังหวัดมหาสารคาม 44110,,พยัคฆภูมิพิสัย,,พยัคฆภูมิพิสัย,,043-791-432,15.517917,103.196167,,มหาสารคาม,,ปะหลาน,,043-791-431,,09.00 - 17.00 น.,,09.00 - 15.00 น.,,จันทร์ - ศุกร์,,เสาร์,,HW-177,096-8036660,SOMWANG
,936 หมู่ที่ 1,,936 หมู่ที่ 1 ตำบลวงฆ้อง อำเภอพรหมพิราม จังหวัดพิษณุโลก 65180,,พรหมพิราม,,พรหมพิราม,,055-366-182,17.102082,100.165956,,พิษณุโลก,,วงฆ้อง,,055-366-181,,09.00 - 17.00 น.,,09.00 - 15.00 น.,,จันทร์ - ศุกร์,,เสาร์,,HW-129,083-0966000,SOMWANG
,73/1-2 หมู่ที่ 9,,73/1-2 หมู่ที่ 9 ตำบลธงชัย อำเภอเมืองเพชรบุรี จังหวัดเพชรบุรี 76000,,พระนครคีรี (เพชรบุรี),,เมืองเพชรบุรี,,032-400-861,13.112831,99.936002,,เพชรบุรี,,ธงชัย,,032-400-860,,09.00 - 17.00 น.,,09.00 - 15.00 น.,,จันทร์ - ศุกร์,,เสาร์,,HW-283,091-889-5444,SOMWANG
,146/28 หมู่ที่ 3,,146/28 หมู่ที่ 3 ตำบลปากคลองบางปลากด อำเภอพระสมุทรเจดีย์ จังหวัดสมุทรปราการ 10290,,พระสมุทรเจดีย์ (สมุทรปราการ),,พระสมุทรเจดีย์,,02-405-4875,13.59464,100.578912,,สมุทรปราการ,,ปากคลองบางปลากด,,024-054-874,,09.00 - 17.00 น.,,09.00 - 15.00 น.,,จันทร์ - ศุกร์,,เสาร์,,HW-305,091-889-6777,SOMWANG
,11/15 หมู่ที่ 1,,11/15 หมู่ที่ 1 ตำบลอิปัน อำเภอพระแสง จังหวัดสุราษฎร์ธานี 84210,,พระแสง (สุราษฎร์ธานี),,พระแสง,,077-300-057,8.57401,99.241487,,สุราษฎร์ธานี,,อิปัน,,077-300-056,,09.00 - 17.00 น.,,09.00 - 15.00 น.,,จันทร์ - ศุกร์,,เสาร์,,HW-255,091-889-3399,SOMWANG
,78/2 หมู่ที่ 1,,78/2 หมู่ที่ 1 ตำบลถ้ำกระต่ายทอง อำเภอพรานกระต่าย จังหวัดกำแพงเพชร 62110,,พรานกระต่าย (กำแพงเพชร),,พรานกระต่าย,,063-905-7111,16.676034,99.591913,,นครสวรรค์,,ถ้ำกระต่ายทอง,,055-741-873,,09.00 - 17.00 น.,,09.00 - 15.00 น.,,จันทร์ - ศุกร์,,เสาร์,,HW-336,063-905-7111,SOMWANG
,26/305-306 หมู่ที่ 6,,26/305-306 หมู่ที่ 6 แขวงสายไหม เขตสายไหม จังหวัดกรุงเทพฯ 10220,,พหลโยธิน กม.27,,สายไหม,,02-533-8344,13.944678,100.62373,,กรุงเทพมหานคร,,สายไหม,,02-533-8343,,09.00 - 17.00 น.,,09.00 - 15.00 น.,,จันทร์ - ศุกร์,,เสาร์,,HW-227,063-9050444,SOMWANG
,604 ถนนพหลโยธิน,,604 ถนนพหลโยธิน ตำบลเวียง อำเภอเมืองพะเยา จังหวัดพะเยา 56000,,พะเยา,,เมืองพะเยา,,054-480-427,19.169226,99.899144,,พะเยา,,เวียง,,054-480-426,,09.00 - 17.00 น.,,09.00 - 15.00 น.,,จันทร์ - ศุกร์,,เสาร์,,HW-092,083-0976000,SOMWANG
,371/18 ถนนเพชรเกษม,,371/18 ถนนเพชรเกษม ตำบลท้ายช้าง อำเภอเมืองพังงา จังหวัดพังงา 82000,,พังงา,,เมืองพังงา,,076-413-332,8.450639,98.530722,,พังงา,,ท้ายช้าง,,076-413-331,,09.00 - 17.00 น.,,09.00 - 15.00 น.,,จันทร์ - ศุกร์,,เสาร์,,HW-166,096-8085550,SOMWANG
,500/10 หมู่ที่ 7,,500/10 หมู่ที่ 7 ตำบลดีลัง อำเภอพัฒนานิคม จังหวัดลพบุรี 15220,,พัฒนานิคม ซอย 12 (ลพบุรี),,พัฒนานิคม,,036-436-538,14.846237,100.91411,,ลพบุรี,,ดีลัง,,036-436-537,,09.00 - 17.00 น.,,09.00 - 15.00 น.,,จันทร์ - ศุกร์,,เสาร์,,HW-260,091-889-3888,SOMWANG
,47/10-11 หมู่ที่ 9,,47/10-11 หมู่ที่ 9 ตำบลหนองปรือ อำเภอบางละมุง จังหวัดชลบุรี 20150,,พัทยา,,บางละมุง,,038-410-465,12.932293,100.899292,,ชลบุรี,,หนองปรือ,,038-410-464,,09.00 - 17.00 น.,,09.00 - 15.00 น.,,จันทร์ - ศุกร์,,เสาร์,,HW-048,087-9635000,SOMWANG
,479/3 ถนนราเมศวร์,,485/16 ถนนราเมศวร์ ตำบลคูหาสวรรค์ อำเภอเมืองพัทลุง จังหวัดพัทลุง 93000,,พัทลุง,,เมือง,,074-615-355,7.612687,100.06515,,พัทลุง,,คูหาสวรรค์,,074-615-353,,09.00 - 17.00 น.,,09.00 - 15.00 น.,,จันทร์ - ศุกร์,,เสาร์,,HW-036,063-9065000,SOMWANG
,"189/49 ,189/50 หมู่ที่ 5",,"189/49 ,189/50 หมู่ที่ 5 ตำบลพันท้ายนรสิงห์ อำเภอเมืองสมุทรสาคร จังหวัดสมุทรสาคร 74000",,พันท้ายนรสิงห์,,เมืองสมุทรสาคร,,034-872-483,13.593966,100.36665,,สมุทรสาคร,,พันท้ายนรสิงห์,,034-872-484,,09.00 - 17.00 น.,,09.00 - 15.00 น.,,จันทร์ - ศุกร์,,เสาร์,,HW-212,063-9044477,SOMWANG
,1/15 หมู่ที่ 3,,1/15 หมู่ที่ 3 ตำบลพานทอง อำเภอพานทอง จังหวัดชลบุรี 20160,,พานทอง,,พานทอง,,038-213-534,13.461863,101.090036,,ชลบุรี,,พานทอง,,038-213-744,,09.00 - 17.00 น.,,09.00 - 15.00 น.,,จันทร์ - ศุกร์,,เสาร์,,HW-273,091-889-4477,SOMWANG
,2/148-149 ถนนศรีมาลา,,2/148-149 ถนนศรีมาลา ตำบลในเมือง อำเภอเมือง จังหวัดพิจิตร 66000,,พิจิตร,,เมือง,,056-611-052,16.44461,100.340169,,พิจิตร,,ในเมือง,,056-611-051,,09.00 - 17.00 น.,,09.00 - 15.00 น.,,จันทร์ - ศุกร์,,เสาร์,,HW-061,089-9128000,SOMWANG
,36/42-43 ถนนสถิตย์นิมานการ,,36/42-43 ถนนสถิตย์นิมานการ ตำบลพิบูล อำเภอพิบูลมังสาหาร จังหวัดอุบลราชธานี 34110,,พิบูลมังสาหาร,,พิบูลมังสาหาร,,045-442-269,15.240611,105.229278,,อุบลราชธานี,,พิบูล,,045-442-270,,09.00 - 17.00 น.,,09.00 - 15.00 น.,,จันทร์ - ศุกร์,,เสาร์,,HW-176,083-0975335,SOMWANG
,308/2-3 หมู่ที่ 14,,308/2-3 หมู่ที่ 14 ตำบลในเมือง อำเภอพิมาย จังหวัดนครราชสีมา 50000,,พิมาย (นครราชสีมา),,พิมาย,,044-481-180,15.216402,102.49525,,นครราชสีมา,,ในเมือง,,044-481-181,,09.00 - 17.00 น.,,09.00 - 15.00 น.,,จันทร์ - ศุกร์,,เสาร์,,HW-108,091-8901000,SOMWANG
,57/10 ถนนพระองค์ดำ,,57/10 ถนนพระองค์ดำ ตำบลในเมือง อำเภอเมือง จังหวัดพิษณุโลก 65000,,พิษณุโลก,,พิษณุโลก,,055-377-761,16.819974,100.270284,,พิษณุโลก,,ในเมือง,,055-377-760,,09.00 - 17.00 น.,,09.00 - 15.00 น.,,จันทร์ - ศุกร์,,เสาร์,,HW-014,085-4365000,SOMWANG
,193/8 หมู่ที่ 5,,193/8 หมู่ที่ 5 ตำบลกระทุ่มล้ม อำเภอสามพราน จังหวัดนครปฐม 73220,,พุทธมณฑลสาย 4,,สามพราน,,02-431-2831,13.721639,100.329833,,นครปฐม,,กระทุ่มล้ม,,02-431-2832,,09.00 - 17.00 น.,,09.00 - 15.00 น.,,จันทร์ - ศุกร์,,เสาร์,,HW-168,096--8208900,SOMWANG
,4/40 หมู่ที่ 4,,4/40 หมู่ที่ 4 ถนนวิรัชหงษ์หยก ตำบลวิชิต อำเภอเมือง จังหวัดภูเก็ต 83000,,ภูเก็ต,,เมือง,,076-522-580,7.881384,98.366877,,ภูเก็ต,,วิชิต,,076-522-579,,09.00 - 17.00 น.,,09.00 - 15.00 น.,,จันทร์ - ศุกร์,,เสาร์,,HW-072,080-2898000,SOMWANG
,"571,572 หมู่ที่ 2",,"571,572 หมู่ที่ 2 ตำบลผักปัง อำเภอภูเขียว จังหวัดชัยภูมิ 36110",,ภูเขียว(ชัยภูมิ),,ภูเขียว,,044-861-120,16.365556,102.137722,,ชัยภูมิ,,ผักปัง,,044-861-116,,09.00 - 17.00 น.,,09.00 - 15.00 น.,,จันทร์ - ศุกร์,,เสาร์,,HW-179,063-9013434,SOMWANG
,168/24 หมู่ที่ 3,,168/24 หมู่ที่ 3 ตำบลมวกเหล็ก อำเภอมวกเหล็ก จังหวัดสระบุรี 18180,,มวกเหล็ก (สระบุรี),,มวกเหล็ก,,036-345-716,14.651503,101.200324,,สระบุรี,,มวกเหล็ก,,036-345-715,,09.00 - 17.00 น.,,09.00 - 15.00 น.,,จันทร์ - ศุกร์,,เสาร์,,HW-316,091-889-7654,SOMWANG
,480 ถนนนครสวรรค์,,480 ถนนนครสวรรค์ ตำบลตลาด อำเภอเมือง จังหวัดมหาสารคาม 44000,,มหาสารคาม,,มหาสารคาม,,043-713-442,16.183442,103.304807,,มหาสารคาม,,ตลาด,,043-713-443,,09.00 - 17.00 น.,,09.00 - 15.00 น.,,จันทร์ - ศุกร์,,เสาร์,,HW-024,085-7135000,SOMWANG
,141/8 ถนนสุขุมวิท,,141/8 ถนนสุขุมวิท ตำบลมาบตาพุด อำเภอเมือง จังหวัดระยอง 21150,,มาบตาพุด,,มาบตาพุด,,038-607-849,12.712655,101.169221,,ระยอง,,มาบตาพุด,,038-607-848,,09.00 - 17.00 น.,,09.00 - 15.00 น.,,จันทร์ - ศุกร์,,เสาร์,,HW-008,082-8515000,SOMWANG
,"53/2 ,53/3 ถนนสีหบุรานุกิจ",,"53/2 ,53/3 ถนนสีหบุรานุกิจ แขวงมีนบุรี เขตมีนบุรี จังหวัดกรุงเทพฯ 10510",,มีนบุรี,,มีนบุรี,,02-540-2206,13.812736,100.721546,,กรุงเทพมหานคร,,มีนบุรี,,02-540-2205,,09.00 - 17.00 น.,,09.00 - 15.00 น.,,จันทร์ - ศุกร์,,เสาร์,,HW-023,089-5845000,SOMWANG
,44/25 ถนนพิทักษ์พนมเขต,,119/2 ถนนพิทักษ์พนมเขต ตำบลมุกดาหาร อำเภอเมืองมุกดาหาร จังหวัดมุกดาหาร 49000,,มุกดาหาร,,เมือง,,042-612-770,16.539694,104.719139,,มุกดาหาร,,มุกดาหาร,,042-612-771,,09.00 - 17.00 น.,,09.00 - 15.00 น.,,จันทร์ - ศุกร์,,เสาร์,,HW-069,080-2968000,SOMWANG
,"331/1 ,331/2 หมู่ที่ 1",,"331/1 ,331/2 หมู่ที่ 1 ตำบลม่วงสามสิบ อำเภอม่วงสามสิบ จังหวัดอุบลราชธานี 34140",,ม่วงสามสิบ,,ม่วงสามสิบ,,045-251-871,15.514586,104.724056,,อุบลราชธานี,,ม่วงสามสิบ,,045-251-817,,09.00 - 17.00 น.,,09.00 - 15.00 น.,,จันทร์ - ศุกร์,,เสาร์,,HW-239,063-9049111,SOMWANG
,238 ถนนแจ้งสนิท,,238 ถนนแจ้งสนิท ตำบลในเมือง อำเภอเมือง จังหวัดยโสธร 35000,,ยโสธร,,ยโสธร,,045-713-893,15.795067,104.142292,,ยโสธร,,ในเมือง,,045-713-892,,09.00 - 17.00 น.,,09.00 - 15.00 น.,,จันทร์ - ศุกร์,,เสาร์,,HW-010,084-8945000,SOMWANG
,183 หมู่ที่ 1,,183 หมู่ที่ 1 ถนนตรัง-ปะเหลียน ตำบลย่านตาขาว อำเภอย่านตาขาว จังหวัดตรัง 92140,,ย่านตาขาว(ตรัง),,ย่านตาขาว,,075-584-032,7.384537,99.669461,,ตรัง,,ย่านตาขาว,,075-584-031,,09.00 - 17.00 น.,,09.00 - 15.00 น.,,จันทร์ - ศุกร์,,เสาร์,,HW-155,091-7711515,SOMWANG
,240/16 ถนนเรืองราษฎร์,,240/16 ถนนเรืองราษฎร์ ตำบลเขานิเวศน์ อำเภอเมืองระนอง จังหวัดระนอง 85000,,ระนอง,,เมืองระนอง,,077-812-921,9.965994,98.633612,,ระนอง,,เขานิเวศน์,,077-812-922,,09.00 - 17.00 น.,,09.00 - 15.00 น.,,จันทร์ - ศุกร์,,เสาร์,,HW-116,091-8894000,SOMWANG
,13/6 หมู่ที่ 3,,13/6 หมู่ที่ 3 ตำบลเนินพระ อำเภอเมือง จังหวัดระยอง 21000,,ระยอง,,เมือง,,038-615-347,12.683608,101.23382,,ระยอง,,เนินพระ,,038-615-346,,09.00 - 17.00 น.,,09.00 - 15.00 น.,,จันทร์ - ศุกร์,,เสาร์,,HW-055,082-5745000,SOMWANG
,304 ถนนราษฎร์บำรุง,,304 ถนนราษฎร์บำรุง ตำบลระโนด อำเภอระโนด จังหวัดสงขลา 90140,,ระโนด (สงขลา),,ระโนด,,074-393-512,"7.776142,",100.31877,,สงขลา,,ระโนด,,074-393-511,,09.00 - 17.00 น.,,09.00 - 15.00 น.,,จันทร์ - ศุกร์,,เสาร์,,HW-304,091-889-6655,SOMWANG
,"404 ,406 ถนนรังสิต-ปทุมธานี",,"404 ,406 ถนนรังสิต-ปทุมธานี ตำบลประชาธิปัตย์ อำเภอธัญบุรี จังหวัดปทุมธานี 12130",,รังสิต (หมู่บ้านรัตนโกสินทร์ 200 ปี),,ธัญบุรี,,02-147-0898,13.986892,100.60432,,ปทุมธานี,,ประชาธิปัตย์,,02-147-0899,,09.00 - 17.00 น.,,09.00 - 15.00 น.,,จันทร์ - ศุกร์,,เสาร์,,HW-233,063-9048222,SOMWANG
,49/139 หมู่ที่ 1,,49/139 หมู่ที่ 1 ตำบลคลองสาม อำเภอคลองหลวง จังหวัดปทุมธานี 12120,,รังสิตคลอง 3 (ถนนเลียบคลองสาม),,คลองหลวง,,02-157-2441,14.014653,100.663649,,ปทุมธานี,,คลองสาม,,02-157-2440,,09.00 - 17.00 น.,,09.00 - 15.00 น.,,จันทร์ - ศุกร์,,เสาร์,,HW-257,091-889-3666,SOMWANG
,199/435 หมู่ที่ 4,,199/435 หมู่ที่ 4 ตำบลรังสิต อำเภอธัญบุรี จังหวัดปทุมธานี 12110,,รังสิตคลอง 6,,ธัญบุรี,,02-577-1475,14.025084,100.745456,,ปทุมธานี,,รังสิต,,02-577-1474,,09.00 - 17.00 น.,,09.00 - 15.00 น.,,จันทร์ - ศุกร์,,เสาร์,,HW-230,063-9050333,SOMWANG
,603 ถนนรังสิต-นครนายก,,603 ถนนรังสิต-นครนายก ตำบลประชาธิปัตย์ อำเภอธัญบุรี จังหวัดปทุมธานี 12130,,รังสิตคลอง2,,ธัญบุรี,,02-533-0863,13.990815,100.645024,,ปทุมธานี,,ประชาธิปัตย์,,02-533-0864,,09.00 - 17.00 น.,,09.00 - 15.00 น.,,จันทร์ - ศุกร์,,เสาร์,,HW-098,091-8905000,SOMWANG
,191/1 หมู่ที่ 1,,191/1 หมู่ที่ 1 ตำบลรัตนบุรี อำเภอรัตนบุรี จังหวัดสุรินทร์ 32130,,รัตนบุรี (สุรินทร์),,รัตนบุรี,,044-599-352,15.320952,103.853141,,สุรินทร์,,รัตนบุรี,,044-599-351,,09.00 - 17.00 น.,,09.00 - 15.00 น.,,จันทร์ - ศุกร์,,เสาร์,,HW-258,091-889-3555,SOMWANG
,44/15 ถนนเพชรเกษม,,44/15 ถนนเพชรเกษม ตำบลหน้าเมือง อำเภอเมืองราชบุรี จังหวัดราชบุรี 70000,,ราชบุรี,,เมืองราชบุรี,,032-720-233,13.542876,99.80914,,ราชบุรี,,หน้าเมือง,,032-720-232,,09.00 - 17.00 น.,,09.00 - 15.00 น.,,จันทร์ - ศุกร์,,เสาร์,,HW-330,063-905-6222,SOMWANG
,"154 ,156 ถนนรามอินทรา",,"154 ,156 ถนนรามอินทรา แขวงรามอินทรา เขตคันนายาว จังหวัดกรุงเทพฯ 10230",,รามอินทรา กม.7,,คันนายาว,,02-519-0156,13.843264,100.653358,,กรุงเทพมหานคร,,รามอินทรา,,02-519-0155,,09.00 - 17.00 น.,,09.00 - 15.00 น.,,จันทร์ - ศุกร์,,เสาร์,,HW-288,091-889-5666,SOMWANG
,28 หมู่ที่ 14,,28 หมู่ที่ 14 ตำบลเมืองคง อำเภอราษีไศล จังหวัดศรีสะเกษ 33160,,ราษีไศล (ศรีสะเกษ),,ราษีไศล,,045-682-194,15.342891,104.153565,,ศรีสะเกษ,,เมืองคง,,045-682-193,,09.00 - 17.00 น.,,09.00 - 15.00 น.,,จันทร์ - ศุกร์,,เสาร์,,HW-268,091-889-4400,SOMWANG
,"172, 173 หมู่ที่ 11",,"172, 173 หมู่ที่ 11 ตำบลเหนือเมือง อำเภอเมืองร้อยเอ็ด จังหวัดร้อยเอ็ด 45000",,ร้อยเอ็ด,,เมืองร้อยเอ็ด,,043-516-838,16.066579,103.650964,,ร้อยเอ็ด,,เหนือเมือง,,043-516-262,,09.00 - 17.00 น.,,09.00 - 15.00 น.,,จันทร์ - ศุกร์,,เสาร์,,HW-033,063-9061000,SOMWANG
,19/5-7 หมู่ 1,,19/5-7 หมู่ 1 ตำบลท่าศาลา อำเภอเมือง จังหวัดลพบุรี 15000,,ลพบุรี,,เมือง,,036-422-373,14.791821,100.671568,,ลพบุรี,,ท่าศาลา,,036-422-372,,09.00 - 17.00 น.,,09.00 - 15.00 น.,,จันทร์ - ศุกร์,,เสาร์,,HW-032,063-9058000,SOMWANG
,"1 ,1/1 หมู่ที่ 4",,"1 ,1/1 หมู่ที่ 4 ตำบลกำแพง อำเภอละงู จังหวัดสตูล 91110",,ละงู (สตูล),,ละงู,,074-740-776,6.882226,99.78454,,สตููล,,กำแพง,,074-740-775,,09.00 - 17.00 น.,,09.00 - 15.00 น.,,จันทร์ - ศุกร์,,เสาร์,,HW-269,091-889-4455,SOMWANG
,77/18-19 หมู่ที่ 3,,77/18-19 หมู่ที่ 3 ตำบลสามเมือง อำเภอลาดบัวหลวง จังหวัดพระนครศรีอยุธยา 13230,,ลาดบัวหลวง,,ลาดบัวหลวง,,035-355-415,14.164644,100.291797,,พระนครศรีอยุธยา,,สามเมือง,,035-355-414,,09.00 - 17.00 น.,,09.00 - 15.00 น.,,จันทร์ - ศุกร์,,เสาร์,,HW-208,063-9044433,SOMWANG
,769 หมู่ที่ 6,,769 หมู่ที่ 6 ตำบลลาดยาว อำเภอลาดยาว จังหวัดนครสวรรค์ 60150,,ลาดยาว,,ลาดยาว,,056-272-521,15.750173,99.792955,,นครสวรรค์,,ลาดยาว,,056-272-520,,09.00 - 17.00 น.,,09.00 - 15.00 น.,,จันทร์ - ศุกร์,,เสาร์,,HW-058,084-9408000,SOMWANG
,"242/4 ,242/5 ถนนลาดหญ้า",,"242/4 ,242/5 ถนนลาดหญ้า แขวงคลองสาน เขตคลองสาน จังหวัดกรุงเทพฯ 10600",,ลาดหญ้า,,คลองสาน,,02-439-2089,13.727035,100.496837,,กรุงเทพมหานคร,,คลองสาน,,02-439-2088,,09.00 - 17.00 น.,,09.00 - 15.00 น.,,จันทร์ - ศุกร์,,เสาร์,,HW-226,063-9047333,SOMWANG
,141/8 หมู่ที่ 1,,141/8 หมู่ที่ 1 ตำบลลาดหญ้า อำเภอเมืองกาญจนบุรี จังหวัดกาญจนบุรี 71190,,ลาดหญ้า (กาญจนบุรี),,เมืองกาญจนบุรี,,034-589-029,14.100081,99.418201,,กาญจนบุรี,,ลาดหญ้า,,034-589-028,,09.00 - 17.00 น.,,09.00 - 15.00 น.,,จันทร์ - ศุกร์,,เสาร์,,HW-293,091-889-6222,SOMWANG
,"19/38 ,19/39 หมู่ที่ 1",,"19/38 ,19/39 หมู่ที่ 1 ตำบลคูขวาง อำเภอลาดหลุมแก้ว จังหวัดปทุมธานี 12140",,ลาดหลุมแก้ว,,ลาดหลุมแก้ว,,02-599-1034,14.047632,100.437846,,ปทุมธานี,,คูขวาง,,02-599-1033,,09.00 - 17.00 น.,,09.00 - 15.00 น.,,จันทร์ - ศุกร์,,เสาร์,,HW-200,096-8044100,SOMWANG
,355 หมู่ที่ 5,,355 หมู่ที่ 5 ตำบลลำนารายณ์ อำเภอชัยบาดาล จังหวัดลพบุรี 15130,,ลำนารายณ์,,ชัยบาดาล,,036-461-885,15.204776,101.137093,,ลพบุรี,,ลำนารายณ์,,036-461-884,,09.00 - 17.00 น.,,09.00 - 15.00 น.,,จันทร์ - ศุกร์,,เสาร์,,HW-107,091-8181000,SOMWANG
,880 หมู่ที่ 9,,880 หมู่ที่ 9 ตำบลลำปลายมาศ อำเภอลำปลายมาศ จังหวัดบุรีรัมย์ 31130,,ลำปลายมาศ,,ลำปลายมาศ,,044-660-975,15.025016,102.834948,,บุรีรัมย์,,ลำปลายมาศ,,044-660-974,,09.00 - 17.00 น.,,09.00 - 15.00 น.,,จันทร์ - ศุกร์,,เสาร์,,HW-234,063-9047555,SOMWANG
,260-260/1 ถนนฉัตรไชย,,260-260/1 ถนนฉัตรไชย ตำบลสบตุ๋ย อำเภอเมือง จังหวัดลำปาง 52100,,ลำปาง,,เมือง,,054-231-476,18.287755,99.489,,ลำปาง,,สบตุ๋ย,,054-231-466,,09.00 - 17.00 น.,,09.00 - 15.00 น.,,จันทร์ - ศุกร์,,เสาร์,,HW-031,063-9056000,SOMWANG
,1/82 หมู่ 4,,"1/68 ,1/69 หมู่ที่ 4 ตำบลบ้านกลาง อำเภอเมืองลำพูน จังหวัดลำพูน 51000",,ลำพูน,,ลำพูน,,053-581-791,18.586537,99.050415,,ลำพูน,,บ้านกลาง,,053-581-790,,09.00 - 17.00 น.,,09.00 - 15.00 น.,,จันทร์ - ศุกร์,,เสาร์,,HW-019,080-2975000,SOMWANG
,29/282 หมู่ที่ 4,,29/282 หมู่ที่ 4 ตำบลลาดสวาย อำเภอลำลูกกา จังหวัดปทุมธานี 12150,,ลำลูกกา คลอง 4,,ลำลูกกา,,02-140-0998,13.944611,100.684972,,ปทุมธานี,,ลาดสวาย,,02-140-0997,,09.00 - 17.00 น.,,09.00 - 15.00 น.,,จันทร์ - ศุกร์,,เสาร์,,HW-189,063-9011600,SOMWANG
,39/314 หมู่ที่ 4,,39/314 หมู่ที่ 4 ตำบลบึงคำพร้อย อำเภอลำลูกกา จังหวัดปทุมธานี 12150,,ลำลูกกาคลอง 7,,ลำลูกกา,,02-577-1591,13.964897,100.745262,,ปทุมธานี,,บึงคำพร้อย,,02-577-1590,,09.00 - 17.00 น.,,09.00 - 15.00 น.,,จันทร์ - ศุกร์,,เสาร์,,HW-272,091-889-4666,SOMWANG
,7/52 หมู่ที่ 5,,7/52 หมู่ที่ 5 ตำบลลำลูกกา อำเภอลำลูกกา จังหวัดปทุมธานี 12150,,ลำลูกกาคลอง 8,,ลำลููกกา,,02-191-0018,13.943479,100.772382,,ปทุุมธานี,,ลำลูกกา,,021-910-017,,09.00 - 17.00 น.,,09.00 - 15.00 น.,,จันทร์ - ศุกร์,,เสาร์,,HW-312,091-889-7444,SOMWANG
,"888 ,890 ถนนรามคำแหง",,"888 ,890 ถนนรามคำแหง แขวงหัวหมาก เขตบางกะปิ จังหวัดกรุงเทพฯ 10240",,ลำสาลี,,บางกะปิ,,02-377-0391,13.764272,100.652325,,กรุงเทพมหานคร,,หัวหมาก,,02-377-0390,,09.00 - 17.00 น.,,09.00 - 15.00 น.,,จันทร์ - ศุกร์,,เสาร์,,HW-096,091-8185000,SOMWANG
,487 หมู่ที่ 1,,487 หมู่ที่ 1 ตำบลชุมแสง อำเภอวังจันทร์ จังหวัดระยอง 21210,,วังจันทร์ (ระยอง),,วังจันทร์,,063-905-7555,12.935983,101.522439,,ระยอง,,ชุมแสง,,038-666-591,,09.00 - 17.00 น.,,09.00 - 15.00 น.,,จันทร์ - ศุกร์,,เสาร์,,HW-342,063-905-7555,SOMWANG
,133/1-2 หมู่ที่ 1,,133/1-2 หมู่ที่ 1 ตำบลวังน้ำเย็น อำเภอวังน้ำเย็น จังหวัดสระแก้ว 27210,,วังน้ำเย็น(สระแก้ว),,วังน้ำเย็น,,037-251-407,13.518333,102.173306,,สระแก้ว,,วังน้ำเย็น,,037-251-406,,09.00 - 17.00 น.,,09.00 - 15.00 น.,,จันทร์ - ศุกร์,,เสาร์,,HW-178,096-8070600,SOMWANG
,294 หมู่ที่ 9,,294 หมู่ที่ 9 ตำบลวังสะพุง อำเภอวังสะพุง จังหวัดเลย 42130,,วังสะพุง,,วังสะพุง,,042-842-201,17.298875,101.771673,,เลย,,วังสะพุง,,042-842-200,,09.00 - 17.00 น.,,09.00 - 15.00 น.,,จันทร์ - ศุกร์,,เสาร์,,HW-244,063-9051666,SOMWANG
,717/2 หมู่ที่ 2,,717/2 หมู่ที่ 2 ตำบลวังสามหมอ อำเภอวังสามหมอ จังหวัดอุดรธานี 41280,,วังสามหมอ,,วังสามหมอ,,042-387-120,16.949258,103.440163,,อุดรธานี,,วังสามหมอ,,042-387-119,,09.00 - 17.00 น.,,09.00 - 15.00 น.,,จันทร์ - ศุกร์,,เสาร์,,HW-243,063-9050777,SOMWANG
,"110/10, 110/11 หมู่ที่ 3",,"110/10, 110/11 หมู่ที่ 3 ตำบลวังไผ่ อำเภอเมืองชุมพร จังหวัดชุมพร 86000",,วังไผ่ (ชุมพร),,เมืองชุมพร,,063-905-7444,10.502127,99.138158,,สุราษฎร์ธานี,,วังไผ่,,077-613-109,,09.00 - 17.00 น.,,09.00 - 15.00 น.,,จันทร์ - ศุกร์,,เสาร์,,HW-339,063-905-7444,SOMWANG
,188 หมู่ที่ 4 ถนนเดื่อเจริญ,,188 หมู่ที่ 4 ถนนเดื่อเจริญ ตำบลวานรนิวาส อำเภอวานรนิวาส จังหวัดสกลนคร 47120,,วานรนิวาส(สกลนคร),,วานรนิวาส,,042-792-284,17.638556,103.753833,,สกลนคร,,วานรนิวาส,,042-792-283,,09.00 - 17.00 น.,,09.00 - 15.00 น.,,จันทร์ - ศุกร์,,เสาร์,,HW-181,091-7711212,SOMWANG
,74-76 ถนนวารินฯ-พิบูลฯ,,74-76 ถนนวารินฯ-พิบูลฯ ตำบลวารินชำราบ อำเภอวารินชำราบ จังหวัดอุบลราชธานี 34190,,วารินชำราบ,,วารินชำราบ,,045-322-766,15.19612,104.865045,,อุบลราชธานี,,วารินชำราบ,,045-322-765,,09.00 - 17.00 น.,,09.00 - 15.00 น.,,จันทร์ - ศุกร์,,เสาร์,,HW-118,091-8904000,SOMWANG
,173/1 หมู่ที่ 2,,173/1 หมู่ที่ 2 ตำบลท่าโรง อำเภอวิเชียรบุรี จังหวัดเพชรบูรณ์ 67130,,วิเชียรบุรี (เพชรบูรณ์),,วิเชียรบุรี,,056-791-452,15.6626,101.11114,,เพชรบูรณ์,,ท่าโรง,,056-791-451,,09.00 - 17.00 น.,,09.00 - 15.00 น.,,จันทร์ - ศุกร์,,เสาร์,,HW-249,063-905-4111,SOMWANG
,179/1 หมู่ที่ 13,,179/1 หมู่ที่ 13 ตำบลเมืองใหม่ อำเภอศรีบุญเรือง จังหวัดหนองบัวลำภู 39180,,ศรีบุญเรือง (หนองบัวลำภู),,ศรีบุญเรือง,,042-315-476,16.966009,102.268849,,หนองบัวลำภู,,เมืองใหม่,,042-315-475,,09.00 - 17.00 น.,,09.00 - 15.00 น.,,จันทร์ - ศุกร์,,เสาร์,,HW-275,091-889-4488,SOMWANG
,602/18-19 หมู่ที่ 3,,602/18-19 หมู่ที่ 3 ตำบลศรีประจันต์ อำเภอศรีประจันต์ จังหวัดสุพรรณบุรี 72140,,ศรีประจันต์ (สุพรรณบุรี),,ศรีประจันต์,,035-440-663,14.624094,100.147255,,สุพรรณบุรี,,ศรีีประจันต์,,035-440-662,,09.00 - 17.00 น.,,09.00 - 15.00 น.,,จันทร์ - ศุกร์,,เสาร์,,HW-311,091-889-7555,SOMWANG
,444/4 ถนนเทพา,,444/4 ถนนเทพา ตำบลเมืองเหนือ อำเภอเมือง จังหวัดศรีสะเกษ 33000,,ศรีสะเกษ,,เมือง,,045-643-731,15.119419,104.326146,,ศรีสะเกษ,,เมืองเหนือ,,045-643-733,,09.00 - 17.00 น.,,09.00 - 15.00 น.,,จันทร์ - ศุกร์,,เสาร์,,HW-040,063-906-9000,SOMWANG
,"987/41 ,987/42 ถนนขุขันธ์",,"987/41 ,987/42 ถนนขุขันธ์ ตำบลเมืองใต้ อำเภอเมืองศรีสะเกษ จังหวัดศรีสะเกษ 33000",,ศรีสะเกษ 2 (ถนนขุขันธ์),,เมืองศรีสะเกษ,,045-611-236,15.107702,104.329574,,ศรีสะเกษ,,เมืองใต้,,045-611-235,,09.00 - 17.00 น.,,09.00 - 15.00 น.,,จันทร์ - ศุกร์,,เสาร์,,HW-277,091-889-4777,SOMWANG
,353-354 หมู่ที่ 1,,353-354 หมู่ที่ 1 ตำบลหาดเสี้ยว อำเภอศรีสัชนาลัย จังหวัดสุโขทัย 64130,,ศรีสัชนาลัย,,ศรีสัชนาลัย,,055-672-374,​​​​17.518828,99.763585,,สุโขทัย,,หาดเสี้ยว,,055-672-373,,09.00 - 17.00 น.,,09.00 - 15.00 น.,,จันทร์ - ศุกร์,,เสาร์,,HW-209,096-8239990,SOMWANG
,918/3 หมู่ที่ 2,,918/3 หมู่ที่ 2 ตำบลสระกรวด อำเภอศรีเทพ จังหวัดเพชรบูรณ์ 67170,,ศรีเทพ (เพชรบูรณ์),,ศรีเทพ,,056-798-771,15.440202,101.068208,,เพชรบูรณ์,,สระกรวด,,056-798-770,,09.00 - 17.00 น.,,09.00 - 15.00 น.,,จันทร์ - ศุกร์,,เสาร์,,HW-309,091-889-7333,SOMWANG
,44/1 หมู่ที่ 2,,44/1 หมู่ที่ 2 ตำบลระแงง อำเภอศีขรภูมิ จังหวัดสุรินทร์ 32110,,ศีขรภูมิ,,ศีขรภูมิ,,044-561-035,14.943268,103.78726,,สุรินทร์,,ระแงง,,044-561-034,,09.00 - 17.00 น.,,09.00 - 15.00 น.,,จันทร์ - ศุกร์,,เสาร์,,HW-213,063-9046777,SOMWANG
,1107/5 ถนนรอบเมือง,,1107/5 ถนนรอบเมือง ตำบลธาตุเชิงชุม อำเภอเมืองสกลนคร จังหวัดสกลนคร 47000,,สกลนคร,,เมืองสกลนคร,,042-712-680,17.160459,104.15039,,สกลนคร,,ธาตุเชิงชุม,,042-712-639,,09.00 - 17.00 น.,,09.00 - 15.00 น.,,จันทร์ - ศุกร์,,เสาร์,,HW-037,063-9066000,SOMWANG
,651/102 หมู่ที่ 2,,651/102 หมู่ที่ 2 ตำบลพะวง อำเภอเมืองสงขลา จังหวัดสงขลา 90100,,สงขลา,,เมืองสงขลา,,074-592-564,7.133174,100.580849,,สงขลา,,พะวง,,074-592-563,,09.00 - 17.00 น.,,09.00 - 15.00 น.,,จันทร์ - ศุกร์,,เสาร์,,HW-099,091-8088000,SOMWANG
,448 หมู่ที่ 1,,448 หมู่ที่ 1 ตำบลนิคม อำเภอสตึก จังหวัดบุรีรัมย์ 31150,,สตึก(บุรีรัมย์),,สตึก,,044-681-780,15.294167,103.294889,,บุรีรัมย์,,นิคม,,044-681-781,,09.00 - 17.00 น.,,09.00 - 15.00 น.,,จันทร์ - ศุกร์,,เสาร์,,HW-170,083-0972220,SOMWANG
,702 หมู่ 7 ถนนยุทธการกำธร,,702 หมู่ 7 ถนนยุทธการกำธร ตำบลคลองขุด อำเภอเมือง จังหวัดสตูล 91000,,สตูล,,เมือง,,074-723-347,6.632449,100.069851,,สตูล,,คลองขุด,,074-723-346,,09.00 - 17.00 น.,,09.00 - 15.00 น.,,จันทร์ - ศุกร์,,เสาร์,,HW-077,080-2908000,SOMWANG
,227 ถนนสรงประภา,,227 ถนนสรงประภา แขวงสีกัน เขตดอนเมือง กรุงเทพมหานคร 10210,,สรงประภา,,ดอนเมือง,,02-566-4227,13.925093,100.593296,,กรุงเทพมหานคร,,สีกัน,,02-566-4228,,09.00 - 17.00 น.,,09.00 - 15.00 น.,,จันทร์ - ศุกร์,,เสาร์,,HW-050,084-5698000,SOMWANG
,"376/22, 376/23 หมู่ที่ 8",,"376/22, 376/23 หมู่ที่ 8 ตำบลแพรกศรีราชา อำเภอสรรคบุรี จังหวัดชัยนาท 17140",,สรรคบุรี (ชัยนาท),,สรรคบุรี,,056-481-492,15.046293,100.155974,,ชัยนาท,,แพรกศรีราชา,,056-481-491,,09.00 - 17.00 น.,,09.00 - 15.00 น.,,จันทร์ - ศุกร์,,เสาร์,,HW-326,063-905-5566,SOMWANG
,2/1-2/2 ซอย 23 ( ถ.พหลโยธิน),,2/1-2/2 ซอย 23 ( ถ.พหลโยธิน) ตำบลปากเพรียว อำเภอเมืองสระบุรี จังหวัดสระบุรี 18000,,สระบุรี,,เมืองสระบุรี,,036-230-875,14.54389,100.909107,,สระบุรี,,ปากเพรียว,,036-230-874,,09.00 - 17.00 น.,,09.00 - 15.00 น.,,จันทร์ - ศุกร์,,เสาร์,,HW-053,083-3408000,SOMWANG
,362/3 ถนนสุวรรณศร,,362/3 ถนนสุวรรณศร ตำบลสระแก้ว อำเภอเมือง จังหวัดสระแก้ว 27000,,สระแก้ว,,สระแก้ว,,037-241-634,13.809066,102.0807,,สระแก้ว,,สระแก้ว,,037-241-633,,09.00 - 17.00 น.,,09.00 - 15.00 น.,,จันทร์ - ศุกร์,,เสาร์,,HW-009,082-8575000,SOMWANG
,1888 หมู่ที่ 1,,1888 หมู่ที่ 1 ตำบลสลกบาตร อำเภอขาณุวรลักษบุรี จังหวัดกำแพงเพชร 62140,,สลกบาตร,,ขาณุวรลักษบุรี,,055-772-332,15.997781,99.806912,,กำแพงเพชร,,สลกบาตร,,055-772-331,,09.00 - 17.00 น.,,09.00 - 15.00 น.,,จันทร์ - ศุกร์,,เสาร์,,HW-130,091-0097000,SOMWANG
,"53/1, 53/2 ถนนศรีสัชนาลัย",,"53/1, 53/2 ถนนศรีสัชนาลัย ตำบลเมืองสวรรคโลก อำเภอสวรรคโลก จังหวัดสุโขทัย 64110",,สวรรคโลก (สุโขทัย),,สรรคโลก,,055-615-307,17.316748,99.833183,,สุโขทัย,,เมืองสรรคโลก,,055-615-306,,09.00 - 17.00 น.,,09.00 - 15.00 น.,,จันทร์ - ศุกร์,,เสาร์,,HW-320,063-904-4449,SOMWANG
,"425/5,425/7 หมู่ที่ 20",,"425/5,425/7 หมู่ที่ 20 ตำบลสว่างแดนดิน อำเภอสว่างแดนดิน จังหวัดสกลนคร 47110",,สว่างแดนดิน,,สว่างแดนดิน,,042-722-558,17.474925,103.464128,,สกลนคร,,สว่างแดนดิน,,042-722-559,,09.00 - 17.00 น.,,09.00 - 15.00 น.,,จันทร์ - ศุกร์,,เสาร์,,HW-094,083-0974000,SOMWANG
,100/9 ถนนบางลี่-หนองวัลย์เปรียง,,100/9 ถนนบางลี่-หนองวัลย์เปรียง ตำบลสองพี่น้อง อำเภอสองพี่น้อง จังหวัดสุพรรณบุรี 72110,,สองพี่น้อง,,สองพี่น้อง,,035-531-729,14.229704,100.032912,,สุพรรณบุรี,,สองพี่น้อง,,035-531-728,,09.00 - 17.00 น.,,09.00 - 15.00 น.,,จันทร์ - ศุกร์,,เสาร์,,HW-138,083-0997000,SOMWANG
,"278/1 ,278/2 หมู่ที่ 1",,"278/1 ,278/2 หมู่ที่ 1 ตำบลปะตง อำเภอสอยดาว จังหวัดจันทบุรี 22180",,สอยดาว,,สอยดาว,,039-421-092,13.129936,102.211005,,จันทบุรี,,ปะตง,,039-421-091,,09.00 - 17.00 น.,,09.00 - 15.00 น.,,จันทร์ - ศุกร์,,เสาร์,,HW-210,063-9043111,SOMWANG
,54 ถนนปาดังเบซาร์,,54 ถนนปาดังเบซาร์ ตำบลสะเดา อำเภอสะเดา จังหวัดสงขลา 90120,,สะเดา,,สะเดา,,074-414-187,6.636328,100.420803,,สงขลา,,สะเดา,,074-414-188,,09.00 - 17.00 น.,,09.00 - 15.00 น.,,จันทร์ - ศุกร์,,เสาร์,,HW-126,091-0096000,SOMWANG
,322 ถนนสะแกงาม,,322 ถนนสะแกงาม แขวงแสมดำ เขตบางขุนเทียน จังหวัดกรุงเทพฯ 10150,,สะแกงาม,,บางขุนเทียน,,02-405-4792,13.632662,100.427546,,กรุงเทพมหานคร,,แสมดำ,,02-405-4791,,09.00 - 17.00 น.,,09.00 - 15.00 น.,,จันทร์ - ศุกร์,,เสาร์,,HW-289,091-889-5678,SOMWANG
,16/4-5 ตำบลสังขะ,,16/4-5 ตำบลสังขะ อำเภอสังขะ จังหวัดสุรินทร์ 32150,,สังขะ(สุรินทร์),,สังขะ,,044-571-221,14.637583,103.853722,,สุรินทร์,,สังขะ,,044-571-222,,09.00 - 17.00 น.,,09.00 - 15.00 น.,,จันทร์ - ศุกร์,,เสาร์,,HW-164,091-7712888,SOMWANG
,18/38 หมู่ที่ 2,,18/38 หมู่ที่ 2 ตำบลสัตหีบ อำเภอสัตหีบ จังหวัดชลบุรี 20180,,สัตหีบ(ชลบุรี),,สัตหีบ,,038-437-305,12.67181,100.901747,,ชลบุรี,,สัตหีบ,,038-437-304,,09.00 - 17.00 น.,,09.00 - 15.00 น.,,จันทร์ - ศุกร์,,เสาร์,,HW-157,091-7711155,SOMWANG
,495/3 หมู่ที่ 10,,495/3 หมู่ที่ 10 ตำบลยุหว่า อำเภอสันป่าตอง จังหวัดเชียงใหม่ 50120,,สันป่าตอง,,สันป่าตอง,,053-355-573,18.621842,98.895932,,เชียงใหม่,,ยุหว่า,,053-355-574,,09.00 - 17.00 น.,,09.00 - 15.00 น.,,จันทร์ - ศุกร์,,เสาร์,,HW-049,082-8638000,SOMWANG
,"111/255 ,111/256 หมู่ที่ 2",,"111/255 ,111/256 หมู่ที่ 2 ตำบลสามโคก อำเภอสามโคก จังหวัดปทุมธานี 12160",,สามโคก,,สามโคก,,02-192-2318,14.049038,100.525026,,ปทุมธานี,,สามโคก,,02-192-2317,,09.00 - 17.00 น.,,09.00 - 15.00 น.,,จันทร์ - ศุกร์,,เสาร์,,HW-220,063-9049777,SOMWANG
,49/12 หมู่ที่ 2,,49/12 หมู่ที่ 2 ตำบลยางเนิ้ง อำเภอสารภี จังหวัดเชียงใหม่ 50140,,สารภี,,สารภี,,053-114-342,18.715232,99.033546,,เชียงใหม่,,ยางเนิ้ง,,053-114-341,,09.00 - 17.00 น.,,09.00 - 15.00 น.,,จันทร์ - ศุกร์,,เสาร์,,HW-232,063-9047999,SOMWANG
,2046/16 ถนนเพชรบุรีตัดใหม่,,2046/16 ถนนเพชรบุรีตัดใหม่ แขวงบางกะปิ เขตห้วยขวาง กรุงเทพฯ 10310,,สำนักงานใหญ่,,ห้วยขวาง,,02-308-7408,13.746449,100.576383,,กรุงเทพมหานคร,,บางกะปิ,,02-308-7473,,09.00 - 17.00 น.,,09.00 - 15.00 น.,,จันทร์ - ศุกร์,,เสาร์,,HW-000,089-9005555,SOMWANG
,1584/8-9 หมู่ที่1,,1584/8-9 หมู่ที่1 ตำบลสำโรงเหนือ อำเภอเมืองสมุทรปราการ จังหวัดสมุทรปราการ 10270,,สำโรง,,เมืองสมุทรปราการ,,02-380-1979,13.652231,100.597961,,สมุทรปราการ,,สำโรงเหนือ,,02-380-1980,,09.00 - 17.00 น.,,09.00 - 15.00 น.,,จันทร์ - ศุกร์,,เสาร์,,HW-087,082-0938000,SOMWANG
,892/5 ถนนขุนสรรค์,,892/5 ถนนขุนสรรค์ ตำบลบางพุทรา อำเภอเมืองสิงห์บุรี จังหวัดสิงห์บุรี 16000,,สิงห์บุรี,,เมืองสิงห์บุรี,,036-511-027,14.894825,100.399039,,สิงห์บุรี,,บางพุทรา,,036-511-020,,09.00 - 17.00 น.,,09.00 - 15.00 น.,,จันทร์ - ศุกร์,,เสาร์,,HW-084,082-0658000,SOMWANG
,"267 ,268 หมู่ที่ 6",,"267 ,268 หมู่ที่ 6 ตำบลสีคิ้ว อำเภอสีคิ้ว จังหวัดนครราชสีมา 30140",,สีคิ้ว (นครราชสีมา),,สีคิ้ว,,044-413-141,14.894505,101.723389,,นครราชสีมา,,สีคิ้ว,,044-413-140,,09.00 - 17.00 น.,,09.00 - 15.00 น.,,จันทร์ - ศุกร์,,เสาร์,,HW-261,091-889-3999,SOMWANG
,283/17 หมู่ที่ 8,,283/17 หมู่ที่ 8 ตำบลสุรศักดิ์ อำเภอศรีราชา จังหวัดชลบุรี 20110,,สี่แยกชากค้อ (ศรีราชา),,ศรีราชา,,038-183-302,13.146528,100.958779,,ชลบุรี,,สุรศักดิ์,,038-183-303,,09.00 - 17.00 น.,,09.00 - 15.00 น.,,จันทร์ - ศุกร์,,เสาร์,,HW-274,091-889-4422,SOMWANG
,777/2 หมู่ที่ 5,,777/2 หมู่ที่ 5 ตำบลปลวกแดง อำเภอปลวกแดง จังหวัดระยอง 21140,,สี่แยกซีเค พลาซ่า(ปลวกแดง),,ปลวกแดง,,038-017-228,12.983844,101.21084,,ระยอง,,ปลวกแดง,,038-017-228,,09.00 - 17.00 น.,,09.00 - 15.00 น.,,จันทร์ - ศุกร์,,เสาร์,,HW-196,095-2056667,SOMWANG
,44/7 ถนนนิตโย,,44/7 ถนนนิตโย ตำบลธาตุเชิงชุม อำเภอเมืองสกลนคร จังหวัดสกลนคร 47000,,สี่แยกบ้านธาตุ (สกลนคร),,เมืองสกลนคร,,042-712-818,17.190607,104.097153,,สกลนคร,,ธาตุเชิงชุม,,042-712-817,,09.00 - 17.00 น.,,09.00 - 15.00 น.,,จันทร์ - ศุกร์,,เสาร์,,HW-296,091-889-6444,SOMWANG
,275/17-18 หมู่ 4,,275/17-18 หมู่ 4 ถนนมาลัยแมน ตำบลสนามชัย อำเภอเมือง จังหวัดสุพรรณบุรี 72000,,สุพรรณบุรี,,เมือง,,035-451-649,14.480249,100.130092,,สุพรรณบุรี,,สนามชัย,,035-451-648,,09.00 - 17.00 น.,,09.00 - 15.00 น.,,จันทร์ - ศุกร์,,เสาร์,,HW-035,063-9064000,SOMWANG
,172/1 ถนนชนเกษม,,172/1 ถนนชนเกษม ตำบลตลาด อำเภอเมือง จังหวัดสุราษฎร์ธานี 84000,,สุราษฎร์ธานี,,เมือง,,077-275-394,9.140568,99.327674,,สุราษฎร์ธานี,,ตลาด,,077-275-393,,09.00 - 17.00 น.,,09.00 - 15.00 น.,,จันทร์ - ศุกร์,,เสาร์,,HW-042,083-8215000,SOMWANG
,"103 ,105 ถนนเทศบาล 1",,"103 ,105 ถนนเทศบาล 1 ตำบลในเมือง อำเภอเมืองสุรินทร์ จังหวัดสุรินทร์ 32000",,สุรินทร์,,อำเภอเมืองสุรินทร์,,044-515-817,14.889215,103.491345,,สุรินทร์,,ในเมือง,,044-515-818,,09.00 - 17.00 น.,,09.00 - 15.00 น.,,จันทร์ - ศุกร์,,เสาร์,,HW-086,083-2688000,SOMWANG
,327/6-7 5.จรดวิถีถอง,,327/6-7 ถ.จรดวิถีถอง ตำบลธานี อำเภอเมือง จังหวัดสุโขทัย 64000,,สุโขทัย,,เมือง,,055-610-289,17.013212,99.820621,,สุโขทัย,,ธานี,,055-610-290,,09.00 - 17.00 น.,,09.00 - 15.00 น.,,จันทร์ - ศุกร์,,เสาร์,,HW-060,082-8508000,SOMWANG
,"233, 234 หมู่ที่ 3",,"233, 234 หมู่ที่ 3 ตำบลดอนมูล อำเภอสูงเม่น จังหวัดแพร่ 54130",,สูงเม่น (แพร่),,สูงเม่น,,054-543-546,18.064013,100.118925,,แพร่,,ดอนมูล,,054-543-545,,09.00 - 17.00 น.,,09.00 - 15.00 น.,,จันทร์ - ศุกร์,,เสาร์,,HW-349,063-906-0222,SOMWANG
,65/6 ถนนมิตรภาพ,,65/6 ถนนมิตรภาพ ตำบลโพธิชัย อำเภอเมือง จังหวัดหนองคาย 43000,,หนองคาย,,หนองคาย,,042-413-781,17.873678,102.743771,,หนองคาย,,โพธิชัย,,042-413-780,,09.00 - 17.00 น.,,09.00 - 15.00 น.,,จันทร์ - ศุกร์,,เสาร์,,HW-020,080-9215000,SOMWANG
,48/11-12 ถนนเชื่อมสัมพันธ์,,48/11-12 ถนนเชื่อมสัมพันธ์ แขวงกระทุ่มราย เขตหนองจอก จังหวัดกรุงเทพฯ 10530,,หนองจอก,,หนองจอก,,02-548-2067,13.849878,100.859722,,กรุงเทพมหานคร,,กระทุ่มราย,,02-548-2066,,09.00 - 17.00 น.,,09.00 - 15.00 น.,,จันทร์ - ศุกร์,,เสาร์,,HW-149,091-7711122,SOMWANG
,12/4 หมู่ที่ 7,,12/4 หมู่ที่ 7 ตำบลหนองบัว อำเภอหนองบัว จังหวัดนครสวรรค์ 60110,,หนองบัว(นครสวรรค์),,หนองบัว,,056-200-502,15.866344,100.576142,,นครสวรรค์,,หนองบัว,,056-200-501,,09.00 - 17.00 น.,,09.00 - 15.00 น.,,จันทร์ - ศุกร์,,เสาร์,,HW-237,063-9048777,SOMWANG
,160 หมู่ 1,,160 หมู่ 1 ตำบลหนองบัว อำเภอเมือง จังหวัดหนองบัวลำภู 39000,,หนองบัวลำภู,,เมือง,,042-313-048,17.201425,102.441875,,หนองบัวลำภู,,หนองบัว,,042-313-047,,09.00 - 17.00 น.,,09.00 - 15.00 น.,,จันทร์ - ศุกร์,,เสาร์,,HW-063,085-7238000,SOMWANG
,"88/11 ,88/12 หมู่ที่ 13",,"88/11 ,88/12 หมู่ที่ 13 ตำบลหนองบัวแดง อำเภอหนองบัวแดง จังหวัดชัยภูมิ 36210",,หนองบัวแดง,,หนองบัวแดง,,044-872-512,16.076779,101.80788,,ชัยภูมิ,,หนองบัวแดง,,044-872-511,,09.00 - 17.00 น.,,09.00 - 15.00 น.,,จันทร์ - ศุกร์,,เสาร์,,HW-215,063-9047222,SOMWANG
,65/3 ถนนเศรษฐสัมพันธ์,,65/3 ถนนเศรษฐสัมพันธ์ ตำบลหนองแค อำเภอหนองแค จังหวัดสระบุรี 18140,,หนองแค(สระบุรี),,หนองแค,,036-380-529,14.344804,100.867115,,สระบุรี,,หนองแค,,036-380-528,,09.00 - 17.00 น.,,09.00 - 15.00 น.,,จันทร์ - ศุกร์,,เสาร์,,HW-145,091-7708000,SOMWANG
,317 หมู่ที่ 11,,317 หมู่ที่ 11 ตำบลหนองไผ่ อำเภอหนองไผ่ จังหวัดเพชรบูรณ์ 67140,,หนองไผ่ (เพชรบูรณ์),,หนองไผ่,,056-781-580,15.986656,101.06313,,เพชรบูรณ์,,หนองไผ่,,056-781-579,,09.00 - 17.00 น.,,09.00 - 15.00 น.,,จันทร์ - ศุกร์,,เสาร์,,HW-252,091-889-3377,SOMWANG
,39/17 หมู่ที่ 1,,39/17 หมู่ที่ 1 ตำบลอ่างทอง อำเภอเกาะสมุย จังหวัดสุราษฎร์ธานี 84140,,หน้าทอน (สุราษฎร์ธานี),,เกาะสมุย,,077-334-302,9.520288,99.943103,,สุราษฎร์ธานี,,อ่างทอง,,077-334-301,,09.00 - 17.00 น.,,09.00 - 15.00 น.,,จันทร์ - ศุกร์,,เสาร์,,HW-290,091-889-5588,SOMWANG
,6/13-14 ถนนหมู่บ้านอวยชัย,,6/13-14 ถนนหมู่บ้านอวยชัย ตำบลขันเงิน อำเภอหลังสวน จังหวัดชุมพร 86110,,หลังสวน (ชุมพร),,หลังสวน,,077-544-093,9.954281,99.072759,,ชุมพร,,ขันเงิน,,077-544-092,,09.00 - 17.00 น.,,09.00 - 15.00 น.,,จันทร์ - ศุกร์,,เสาร์,,HW-109,091-7732000,SOMWANG
,284/2-3 ถนนรณกิจ,,284/2-3 ถนนรณกิจ ตำบลหล่มสัก อำเภอหล่มสัก จังหวัดเพชรบูรณ์ 67110,,หล่มสัก,,หล่มสัก,,056-701-738,16.776817,101.241816,,เพชรบูรณ์,,หล่มสัก,,056-701-737,,09.00 - 17.00 น.,,09.00 - 15.00 น.,,จันทร์ - ศุกร์,,เสาร์,,HW-142,083-0998000,SOMWANG
,397/1 หมู่ที่ 1,,397/1 หมู่ที่ 1 ตำบลหันคา อำเภอหันคา จังหวัดชัยนาท 17130,,หันคา,,หันคา,,056-410-528,14.982473,100.011659,,ชัยนาท,,หันคา,,056-410-527,,09.00 - 17.00 น.,,09.00 - 15.00 น.,,จันทร์ - ศุกร์,,เสาร์,,HW-206,096-8057600,SOMWANG
,"132/8 ,132/9 ถนนนคร-ปากพนัง",,"132/8 ,132/9 ถนนนคร-ปากพนัง ตำบลในเมือง อำเภอเมืองนครศรีธรรมราช จังหวัดนครศรีธรรมราช 80000",,หัวถนน,,เมืองนครศรีธรรมราช,,075-342-481,8.383882,99.978349,,นครศรีธรรมราช,,ในเมือง,,075-342-480,,09.00 - 17.00 น.,,09.00 - 15.00 น.,,จันทร์ - ศุกร์,,เสาร์,,HW-199,095-3708900,SOMWANG
,11/193 ถนนเพชรเกษม,,11/193 ถนนเพชรเกษม ตำบลหัวหิน อำเภอหัวหิน จังหวัดประจวบคีรีขันธ์ 77110,,หัวหิน,,หัวหิน,,032-531-523,12.584296,99.951895,,ประจวบคีรีขันธ์,,หัวหิน,,032-531-522,,09.00 - 17.00 น.,,09.00 - 15.00 น.,,จันทร์ - ศุกร์,,เสาร์,,HW-034,063-9063000,SOMWANG
,1167 ถนนเพชรเกษม,,1167 ถนนเพชรเกษม ตำบลหาดใหญ่ อำเภอหาดใหญ่ จังหวัดสงขลา 90110,,หาดใหญ่,,หาดใหญ่,,074-258-467,6.999563,100.450789,,สงขลา,,หาดใหญ่,,074-258-466,,09.00 - 17.00 น.,,09.00 - 15.00 น.,,จันทร์ - ศุกร์,,เสาร์,,HW-018,080-2985000,SOMWANG
,"123, 125 ถนนเพชรเกษม",,"123, 125 ถนนเพชรเกษม ตำบลห้วยยอด อำเภอห้วยยอด จังหวัดตรัง 92130",,ห้วยยอด (ตรัง),,ห้วยยอด,,075-290-689,7.781449,99.635518,,ตรัง,,ห้วยยอด,,075-290-980,,09.00 - 17.00 น.,,09.00 - 15.00 น.,,จันทร์ - ศุกร์,,เสาร์,,HW-328,063-905-5554,SOMWANG
,128/4 หมู่ 7,,128/4 หมู่ 7 ตำบลทุ่งกระพังโหม อำเภอกำแพงแสน จังหวัดนครปฐม 73140,,อ.กำแพงแสน จ.นครปฐม,,กำแพงแสน,,034-355-341,13.998758,99.994567,,นครปฐม,,ทุ่งกระพังโหม,,034-355-340,,09.00 - 17.00 น.,,09.00 - 15.00 น.,,จันทร์ - ศุกร์,,เสาร์,,HW-078,083-8358000,SOMWANG
,71 หมู่ที่ 2,,71 หมู่ที่ 2 ตำบลองครักษ์ อำเภอองครักษ์ จังหวัดนครนายก 26120,,องครักษ์ (นครนายก),,องครักษ์,,037-391-369,14.119452,101.001563,,นครนายก,,องครักษ์,,037-391-368,,09.00 - 17.00 น.,,09.00 - 15.00 น.,,จันทร์ - ศุกร์,,เสาร์,,HW-279,091-889-4999,SOMWANG
,111/2-3 หมู่ 6,,111/2-3 หมู่ 6 ตำบลดอนหัวฬ่อ อำเภอเมือง จังหวัดชลบุรี 20000,,อมตะนคร,,เมือง,,038-454-437,13.432273,101.035923,,ชลบุรี,,ดอนหัวฬ่อ,,038-454-433,,09.00 - 17.00 น.,,09.00 - 15.00 น.,,จันทร์ - ศุกร์,,เสาร์,,HW-039,063 906 8000,SOMWANG
,25/3 ถนนราษฎร์อุทิศ,,25/3 ถนนราษฎร์อุทิศ ตำบลอรัญประเทศ อำเภออรัญประเทศ จังหวัดสระแก้ว 27120,,อรัญประเทศ (สระแก้ว),,อรัญประเทศ,,037-550-368,13.687077,102.503518,,สระแก้ว,,อรัญประเทศ,,037-550-367,,09.00 - 17.00 น.,,09.00 - 15.00 น.,,จันทร์ - ศุกร์,,เสาร์,,HW-294,091-889-6333,SOMWANG
,898/9 หมู่ที่ 9,,898/9 หมู่ที่ 9 ตำบลบุ่ง อำเภอเมือง จังหวัดอำนาจเจริญ 37000,,อำนาจเจริญ,,เมือง,,045-451-387,15.867968,104.626287,,อำนาจเจริญ,,บุ่ง,,045-451-357,,09.00 - 17.00 น.,,09.00 - 15.00 น.,,จันทร์ - ศุกร์,,เสาร์,,HW-044,082-8528000,SOMWANG
,47/2 ถนนโภคานุสรณ์,,"179/7 ,179/8 ,179/9 ถนนทหาร ตำบลหมากแข้ง อำเภอเมืองอุดรธานี จังหวัดอุดรธานี 41000",,อุดรธานี,,อุดรธานี,,042-245-307,17.401173,102.798119,,อุดรธานี,,หมากแข้ง,,042-245-306,,09.00 - 17.00 น.,,09.00 - 15.00 น.,,จันทร์ - ศุกร์,,เสาร์,,HW-015,084-8275000,SOMWANG
,278/1-2 ถนนบรมอาสน์,,278/1-2 ถนนบรมอาสน์ ตำบลท่าอิฐ อำเภอเมือง จังหวัดอุตรดิตถ์ 53000,,อุตรดิตถ์,,เมือง,,055-407-461,17.611291,100.086397,,อุตรดิตถ์,,ท่าอิฐ,,055-407-462,,09.00 - 17.00 น.,,09.00 - 15.00 น.,,จันทร์ - ศุกร์,,เสาร์,,HW-081,082-0638000,SOMWANG
,90/25 ถนนเติบศิริ,,90/25 ถนนเติบศิริ ตำบลอุทัยใหม่ อำเภอเมืองอุทัยธานี จังหวัดอุทัยธานี 61000,,อุทัยธานี,,เมืองอุทัยธานี,,056-511-302,15.388031,100.0215668,,อุทัยธานี,,อุทัยใหม่,,056-511-301,,09.00 - 17.00 น.,,09.00 - 15.00 น.,,จันทร์ - ศุกร์,,เสาร์,,HW-113,091-7724000,SOMWANG
,920 หมู่ที่ 7 ถนนเพียรพจนกิจ,,920 หมู่ที่ 7 ถนนเพียรพจนกิจ ตำบลกำแพง อำเภออุทุมพรพิสัย จังหวัดศรีสะเกษ 33120,,อุทุมพรพิสัย,,อุทุมพรพิสัย,,045-691-521,15.109634,104.139438,,ศรีสะเกษ,,กำแพง,,045-691-522,,09.00 - 17.00 น.,,09.00 - 15.00 น.,,จันทร์ - ศุกร์,,เสาร์,,HW-162,090-9899990,SOMWANG
,624 ถนนชยางกูร,,"614 ,614/1 ถนนชยางกูร ตำบลในเมือง อำเภอเมืองอุบลราชธานี จังหวัดอุบลราชธานี 34000",,อุบลราชธานี,,อุบลราชธานี,,045-316-432,15.26325,104.8454,,อุบลราชธานี,,ในเมือง,,045-316-431,,09.00 - 17.00 น.,,09.00 - 15.00 น.,,จันทร์ - ศุกร์,,เสาร์,,HW-026,082-8635000,SOMWANG
,20/12-13 หมู่ที่ 2,,20/12-13 หมู่ที่ 2 ตำบลพลูตาหลวง อำเภอสัตหีบ จังหวัดชลบุรี 20180,,อู่ตะเภา(ชลบุรี),,สัตหีบ,,038-245-586,12.691167,100.977778,,ชลบุรี,,พลูตาหลวง,,038-245-585,,09.00 - 17.00 น.,,09.00 - 15.00 น.,,จันทร์ - ศุกร์,,เสาร์,,HW-182,091-7711331,SOMWANG
,738 หมู่ที่ 6,,738 หมู่ที่ 6 ตำบลอู่ทอง อำเภออู่ทอง จังหวัดสุพรรณบุรี 72160,,อู่ทอง(สุพรรณบุรี),,อู่ทอง,,035-551-587,14.377538,99.895021,,สุพรรณบุรี,,อู่ทอง,,035-551-586,,09.00 - 17.00 น.,,09.00 - 15.00 น.,,จันทร์ - ศุกร์,,เสาร์,,HW-156,091-7711313,SOMWANG
,19/6 ถนนอ่างทอง-สิงห์บุรี,,19/6 ถนนอ่างทอง-สิงห์บุรี ตำบลตลาดหลวง อำเภอเมือง จังหวัดอ่างทอง 14000,,อ่างทอง,,เมือง,,035-614-051,14.594988,100.453429,,อ่างทอง,,ตลาดหลวง,,035-611-535,,09.00 - 17.00 น.,,09.00 - 15.00 น.,,จันทร์ - ศุกร์,,เสาร์,,HW-056,087-9608000,SOMWANG
,127/45 หมู่ที่ 7,,127/45 หมู่ที่ 7 ตำบลอ่าวลึกใต้ อำเภออ่าวลึก จังหวัดกระบี่ 81110,,อ่าวลึก (กระบี่),,อ่าวลึก,,075-680-476,8.398324,98.742375,,กระบี่ี,,อ่าวลึกใต้,,075-680-475,,09.00 - 17.00 น.,,09.00 - 15.00 น.,,จันทร์ - ศุกร์,,เสาร์,,HW-308,091-889-7111,SOMWANG
,9/9-10 หมู่ที่ 8,,9/9-10 หมู่ที่ 8 ตำบลอ้อมใหญ่ อำเภอสามพราน จังหวัดนครปฐม 73160,,อ้อมใหญ่ (นครปฐม),,สามพราน,,02-420-5698,13.708692,100.279254,,นครปฐม,,อ้อมใหญ่,,02-420-5699,,09.00 - 17.00 น.,,09.00 - 15.00 น.,,จันทร์ - ศุกร์,,เสาร์,,HW-101,091-8898000,SOMWANG
,"70/19 ,70/20 หมู่ที่ 3",,"70/19 ,70/20 หมู่ที่ 3 ตำบลเชิงเนิน อำเภอเมืองระยอง จังหวัดระยอง 21000",,เกาะกลอย (ระยอง),,เมืองระยอง,,038-029-072,12.698079,101.266783,,ระยอง,,เชิงเนิน,,038-029-071,,09.00 - 17.00 น.,,09.00 - 15.00 น.,,จันทร์ - ศุกร์,,เสาร์,,HW-247,063-905-1999,SOMWANG
,1/58 หมู่ที่ 6,,1/58 หมู่ที่ 6 ตำบลบ่อผุด อำเภอเกาะสมุย จังหวัดสุราษฎร์ธานี 84320,,เกาะสมุย (สุราษฎร์ธานี),,เกาะสมุย,,077-447-856,9.535438,100.041803,,สุราษฎร์ธานี,,บ่อผุด,,077-447-802,,09.00 - 17.00 น.,,09.00 - 15.00 น.,,จันทร์ - ศุกร์,,เสาร์,,HW-073,080-2918000,SOMWANG
,112/234 หมู่ที่ 10,,112/234 หมู่ที่ 10 ตำบลหนองปรือ อำเภอบางละมุง จังหวัดชลบุรี 20150,,เขาตาโล (พัทยา),,บางละมุง,,038-332-216,12.907728,100.905239,,ชลบุรี,,หนองปรือ,,038-332-215,,09.00 - 17.00 น.,,09.00 - 15.00 น.,,จันทร์ - ศุกร์,,เสาร์,,HW-248,063-905-2777,SOMWANG
,1087/10 ถนนเคหะร่มเกล้า,,1087/10 ถนนเคหะร่มเกล้า แขวงคลองสองต้นนุ่น เขตลาดกระบัง กทม. 10520,,เคหะร่มเกล้า,,ลาดกระบัง,,02-329-9567,13.764307,100.725704,,กรุงเทพมหานคร,,คลองสองต้นนุ่น,,02-329-9566,,09.00 - 17.00 น.,,09.00 - 15.00 น.,,จันทร์ - ศุกร์,,เสาร์,,HW-100,091-8188000,SOMWANG
,37/19,,37/19 ถนนศรีสุนทร ตำบลเชิงทะเล อำเภอถลาง จังหวัดภูเก็ต 83110,,เชิงทะเล (ภูเก็ต),,ถลาง,,076-530-642,7.988205,98.312447,,ภูเก็ต,,เชิงทะเล,,076-530-641,,09.00 - 17.00 น.,,09.00 - 15.00 น.,,จันทร์ - ศุกร์,,เสาร์,,HW-259,091-889-3777,SOMWANG
,511 หมู่ที่ 8,,511 หมู่ที่ 8 ตำบลหย่วน อำเภอเชียงคำ จังหวัดพะเยา 56110,,เชียงคำ (พะเยา),,เชียงคำ,,054-430-863,19.52325,100.305996,,พะเยา,,หย่วน,,054-430-862,,09.00 - 17.00 น.,,09.00 - 15.00 น.,,จันทร์ - ศุกร์,,เสาร์,,HW-332,063-905-5577,SOMWANG
,53/15 ถนนพหลโยธิน,,53/15 ถนนพหลโยธิน ตำบลรอบเวียง อำเภอเมือง จังหวัดเชียงราย 57000,,เชียงราย,,เชียงราย,,053-600-265,19.886161,99.830484,,เชียงราย,,รอบเวียง,,053-600-266,,09.00 - 17.00 น.,,09.00 - 15.00 น.,,จันทร์ - ศุกร์,,เสาร์,,HW-005,087-8045050,SOMWANG
,88 หมู่ที่ 4,,88 หมู่ที่ 4 ตำบลฟ้าฮ่าม อำเภอเมืองเชียงใหม่ จังหวัดเชียงใหม่ 50000,,เชียงใหม่,,เมืองเชียงใหม่,,053-240-115,18.807711,99.023403,,เชียงใหม่,,ฟ้าฮ่าม,,053-240-114,,09.00 - 17.00 น.,,09.00 - 15.00 น.,,จันทร์ - ศุกร์,,เสาร์,,HW-111,091-8893000,SOMWANG
,268/1 หมู่ที่ 1,,268/1 หมู่ที่ 1 ตำบลเซกา อำเภอเซกา จังหวัดบึงกาฬ 38150,,เซกา(บึงกาฬ),,เซกา,,042-490-584,17.928584,103.949208,,บึงกาฬ,,เซกา,,042-490-583,,09.00 - 17.00 น.,,09.00 - 15.00 น.,,จันทร์ - ศุกร์,,เสาร์,,HW-262,063-905-1444,SOMWANG
,244/1 หมู่ที่ 2,,244/1 หมู่ที่ 2 ตำบลเมืองเดช อำเภอเดชอุดม จังหวัดอุบลราชธานี 34160,,เดชอุดม,,เดชอุดม,,045-361-503,14.902632,105.069492,,อุบลราชธานี,,เมืองเดช,,045-361-304,,09.00 - 17.00 น.,,09.00 - 15.00 น.,,จันทร์ - ศุกร์,,เสาร์,,HW-134,091-8186000,SOMWANG
,113 หมู่ที่ 5,,113 หมู่ที่ 5 ตำบลเขาพระ อำเภอเดิมบางนางบวช จังหวัดสุพรรณบุรี 72120,,เดิมบางนางบวช,,เดิมบางนางบวช,,035-515-152,14.862163,100.08605,,สุพรรณบุรี,,เขาพระ,,035-515-151,,09.00 - 17.00 น.,,09.00 - 15.00 น.,,จันทร์ - ศุกร์,,เสาร์,,HW-211,063-9044466,SOMWANG
,"520/20 ,520/21 หมู่ที่ 16",,"520/20 ,520/21 หมู่ที่ 16 ตำบลรอบเวียง อำเภอเมืองเชียงราย จังหวัดเชียงราย 57000",,เด่นห้า (เชียงราย),,เมืองเชียงราย,,053-719-024,19.898641,99.812002,,เชียงราย,,รอบเวียง,,053-719-023,,09.00 - 17.00 น.,,09.00 - 15.00 น.,,จันทร์ - ศุกร์,,เสาร์,,HW-276,091-889-4567,SOMWANG
,15 ถนนพัฒนาการคูขวาง หมู่บ้านศาลามีชัย 1,,15 ถนนพัฒนาการคูขวาง หมู่บ้านศาลามีชัย 1 ตำบลในเมือง อำเภอเมืองนครศรีธรรมราช จังหวัดนครศรีธรรมราช 80000,,เทสโก้โลตัสนครศรีธรรมราช,,เมืองนครศรีธรรมราช,,075-774-643,8.397677,99.976236,,นครศรีธรรมราช,,ในเมือง,,075-774-642,,10.30 - 19.30 น.,,10.30 - 19.30 น.,,จันทร์ - ศุกร์,,เสาร์ - อาทิตย์,,HW-224,063-9049000,SOMWANG
,909 หมู่ที่ 10,,909 หมู่ที่ 10 ถนนพิษณุโลก-หล่มสัก ตำบลอรัญญิก อำเภอเมืองพิษณุโลก จังหวัดพิษณุโลก 65000,,เทสโก้โลตัสพิษณุโลก,,เมืองพิษณุโลก,,055-253-652,16.819171,100.300906,,พิษณุโลก,,อรัญญิก,,055-253-651,,10.30 - 19.30 น.,,10.30 - 19.30 น.,,จันทร์ - ศุกร์,,เสาร์ - อาทิตย์,,HW-223,063-9048000,SOMWANG
,235 หมู่ที่ 10,,235 หมู่ที่ 10 ตำบลโคกสัก อำเภอบางแก้ว จังหวัดพัทลุง 93160,,เทสโก้โลตัสแม่ขรี,,บางแก้ว,,074-695-226,7.362036,100.122673,,พัทลุง,,โคกสัก,,074-695-225,,10.30 - 19.30 น.,,10.30 - 19.30 น.,,จันทร์ - ศุกร์,,เสาร์ - อาทิตย์,,HW-225,063-9051000,SOMWANG
,222/5 หมู่6,,222/5 หมู่6 ตำบลต้นมะม่วง อำเภอเมือง จังหวัดเพชรบุรี 76000,,เพชรบุรี,,เมือง,,032-401-069,13.08155,99.949421,,เพชรบุรี,,ต้นมะม่วง,,032-401-068,,09.00 - 17.00 น.,,09.00 - 15.00 น.,,จันทร์ - ศุกร์,,เสาร์,,HW-041,083-4465000,SOMWANG
,19/2-3 ถนนเพชรเจริญ,,19/2-3 ถนนเพชรเจริญ ตำบลในเมือง อำเภอเมืองเพชรบูรณ์ จังหวัดเพชรบูรณ์ 67000,,เพชรบูรณ์,,เมืองเพชรบูรณ์,,056-725-144,16.419129,101.153718,,เพชรบูรณ์,,ในเมือง,,056-725-141,,09.00 - 17.00 น.,,09.00 - 15.00 น.,,จันทร์ - ศุกร์,,เสาร์,,HW-029,063-9054000,SOMWANG
,"876, 878 ถนนเพชรเกษม",,"876, 878 ถนนเพชรเกษม แขวงบางแคเหนือ เขตบางแค กรุงเทพมหานคร 10160",,เพชรเกษม,,บางแค,,02-421-9105,13.708886,100.382612,,กรุงเทพมหานคร,,บางแคเหนือ,,02-421-9104,,09.00 - 17.00 น.,,09.00 - 15.00 น.,,จันทร์ - ศุกร์,,เสาร์,,HW-059,084-8238000,SOMWANG
,"201/48, 201/49 ซอยพหลโยธิน 54/1 แยก 4 (วัดเกาะ)",,"201/48, 201/49 ซอยพหลโยธิน 54/1 แยก 4 (วัดเกาะ) แขวงคลองถนน เขตสายไหม จังหวัดกรุงเทพฯ 10220",,เพิ่มสิน (ซอยพหลโยธิน 54/1),,สายไหม,,02-531-1535,13.906897,100.631073,,กรุงเทพฯ,,คลองถนน,,025-311-534,,09.00 - 17.00 น.,,09.00 - 15.00 น.,,จันทร์ - ศุกร์,,เสาร์,,HW-310,063-904-4447,SOMWANG
,6/2 ถนนมิตรภาพ,,6/2 ถนนมิตรภาพ ตำบลเมืองพล อำเภอพล จังหวัดขอนแก่น 40120,,เมืองพล (ขอนแก่น),,พล,,063-905-8222,15.80636,102.607226,,ขอนแก่น,,เมืองพล,,043-306-968,,09.00 - 17.00 น.,,09.00 - 15.00 น.,,จันทร์ - ศุกร์,,เสาร์,,HW-341,063-905-8222,SOMWANG
,59/2-3 ถนนมลิวรรณ,,59/2-3 ถนนมลิวรรณ ตำบลกุดป่อง อำเภอเมือง จังหวัดเลย 42000,,เลย,,เมือง,,042-812-503,17.480968,101.723139,,เลย,,กุดป่อง,,042-812-502,,09.00 - 17.00 น.,,09.00 - 15.00 น.,,จันทร์ - ศุกร์,,เสาร์,,HW-062,087-9658000,SOMWANG
,4/23 ถนนร่วมใจ,,4/23 ถนนร่วมใจ ตำบลกุดป่อง อำเภอเมืองเลย จังหวัดเลย 42000,,เลย2 (ถนนร่วมใจ),,เมืองเลย,,042-870-762,17.490426,101.729,,เลย,,กุดป่อง,,042-870-761,,09.00 - 17.00 น.,,09.00 - 15.00 น.,,จันทร์ - ศุกร์,,เสาร์,,HW-317,063-905-5553,SOMWANG
,"456/7 ,456/8 หมูที่ 13",,"456/7 ,456/8 หมูที่ 13 ตำบลสามแยก อำเภอเลิงนกทา จังหวัดยโสธร 35120",,เลิงนกทา,,เลิงนกทา,,045-782-465,16.205292,104.554161,,ยโสธร,,สามแยก,,045-782-466,,09.00 - 17.00 น.,,09.00 - 15.00 น.,,จันทร์ - ศุกร์,,เสาร์,,HW-214,063-9044488,SOMWANG
,132/5 หมู่ที่ 4,,132/5 หมู่ที่ 4 ตำบลบ้านส้อง อำเภอเวียงสระ จังหวัดสุราษฎร์ธานี 84190,,เวียงสระ (สุราษฎร์ธานี),,เวียงสระ,,077-361-792,8.634943,99.366333,,สุราษฎร์ธานี,,บ้านส้อง,,077-363-794,,09.00 - 17.00 น.,,09.00 - 15.00 น.,,จันทร์ - ศุกร์,,เสาร์,,HW-067,080-1598000,SOMWANG
,401/14 ถนนทักษิณเสนา(ก),,401/14 ถนนทักษิณเสนา(ก) ตำบลเสนา อำเภอเสนา จังหวัดพระนครศรีอยุธยา 13110,,เสนา,,เสนา,,035-201-352,14.325583,100.404306,,พระนครศรีอยุธยา,,เสนา,,035-201-351,,09.00 - 17.00 น.,,09.00 - 15.00 น.,,จันทร์ - ศุกร์,,เสาร์,,HW-186,091-7702000,SOMWANG
,505/1 หมู่ที่ 2,,505/1 หมู่ที่ 2 ตำบลเหนือคลอง อำเภอเหนือคลอง จังหวัดกระบี่ 81130,,เหนือคลอง (กระบี่),,เหนือคลอง,,075-691-810,8.0708,98.998133,,กระบี่,,เหนือคลอง,,075-691-811,,09.00 - 17.00 น.,,09.00 - 15.00 น.,,จันทร์ - ศุกร์,,เสาร์,,HW-068,080-2658000,SOMWANG
,111/15-16 ถนนสุขุมวิท,,111/15-16 ถนนสุขุมวิท ตำบลทางเกวียน อำเภอแกลง จังหวัดระยอง 21110,,แกลง (ระยอง),,แกลง,,038-672-759,12.781233,101.646159,,ระยอง,,ทางเกวียน,,038-672-758,,09.00 - 17.00 น.,,09.00 - 15.00 น.,,จันทร์ - ศุกร์,,เสาร์,,HW-110,091-8182000,SOMWANG
,101/1 ถนนสุดบรรทัด,,101/1 ถนนสุดบรรทัด ตำบลแก่งคอย อำเภอแก่งคอย จังหวัดสระบุรี 18110,,แก่งคอย,,แก่งคอย,,036-248-231,14.589759,100.998884,,สระบุรี,,แก่งคอย,,036-248-230,,09.00 - 17.00 น.,,09.00 - 15.00 น.,,จันทร์ - ศุกร์,,เสาร์,,HW-013,084-9485000,SOMWANG
,308 หมู่ที่ 1,,308 หมู่ที่ 1 ตำบลช่องสามหมอ อำเภอแก้งคร้อ จังหวัดชัยภูมิ 36150,,แก้งคร้อ(ชัยภูมิ),,แก้งคร้อ,,044-882-504,16.111639,102.25775,,ชัยภูมิ,,ช่องสามหมอ,,044-882-505,,09.00 - 17.00 น.,,09.00 - 15.00 น.,,จันทร์ - ศุกร์,,เสาร์,,HW-158,095-3717272,SOMWANG
,35/32-33 หมู่ที่ 1,,35/32-33 หมู่ที่ 1 แขวงทุ่งสองห้อง เขตหลักสี่ จังหวัดกรุงเทพฯ 10210,,แจ้งวัฒนะ,,หลักสี่,,02-573-4328,13.892891,100.561863,,กรุงเทพมหานคร,,ทุ่งสองห้อง,,02-573-4327,,09.00 - 17.00 น.,,09.00 - 15.00 น.,,จันทร์ - ศุกร์,,เสาร์,,HW-240,063-9049333,SOMWANG
,303/8-9 หมู่7,,303/8-9 หมู่7 ตำบลนาจักร อำเภอเมือง จังหวัดแพร่ 54000,,แพร่,,เมือง,,054-531-189,18.127337,100.144802,,แพร่,,นาจักร,,054-531-188,,09.00 - 17.00 น.,,09.00 - 15.00 น.,,จันทร์ - ศุกร์,,เสาร์,,HW-082,083-2698000,SOMWANG
,125/22 ซอยบางแก้ว ถนนทางเข้าเมือง,,125/22 ซอยบางแก้ว ถนนทางเข้าเมือง ตำบลแม่กลอง อำเภอเมืองสมุทรสงคราม จังหวัดสมุทรสงคราม 75000,,แม่กลอง (สมุทรสงคราม),,เมืองสมุทรสงคราม,,034-756-746,13.40508,100.001169,,สมุทรสงคราม,,แม่กลอง,,034-756-745,,09.00 - 17.00 น.,,09.00 - 15.00 น.,,จันทร์ - ศุกร์,,เสาร์,,HW-102,091-8908000,SOMWANG
,"999/37,999/38 หมู่ที่ 3",,"999/37,999/38 หมู่ที่ 3 ตำบลแม่น้ำคู้ อำเภอปลวกแดง จังหวัดระยอง 21140",,แม่น้ำคู้ (ปลวกแดง),,ปลวกแดง,,038-606-527,12.936438,101.232733,,ระยอง,,แม่น้ำคู้,,038-606-526,,09.00 - 17.00 น.,,09.00 - 15.00 น.,,จันทร์ - ศุกร์,,เสาร์,,HW-348,063-905-9000,SOMWANG
,206 หมู่ที่ 1,,206 หมู่ที่ 1 ตำบลริมใต้ อำเภอแม่ริม จังหวัดเชียงใหม่ 50180,,แม่ริม,,แม่ริม,,053-297-126,18.915022,98.945185,,เชียงใหม่,,ริมใต้,,053-297-125,,09.00 - 17.00 น.,,09.00 - 15.00 น.,,จันทร์ - ศุกร์,,เสาร์,,HW-150,091-7711166,SOMWANG
,"31, 31/1 ถนนอินทรคีรี",,"31, 31/1 ถนนอินทรคีรี ตำบลแม่สอด อำเภอแม่สอด จังหวัดตาก 63110",,แม่สอด 2 (ตาก),,แม่สอด,,055-508-671,16.718338,98.588102,,ตาก,,แม่สอด,,055-508-670,,09.00 - 17.00 น.,,09.00 - 15.00 น.,,จันทร์ - ศุกร์,,เสาร์,,HW-346,063-905-8666,SOMWANG
,477/5 ถนนอินทรคีรี,,477/5 ถนนอินทรคีรี ตำบลแม่สอด อำเภอแม่สอด จังหวัดตาก 63110,,แม่สอด(ตาก),,แม่สอด,,055-531-946,16.715611,98.566917,,ตาก,,แม่สอด,,055-531-945,,09.00 - 17.00 น.,,09.00 - 15.00 น.,,จันทร์ - ศุกร์,,เสาร์,,HW-187,063-9013433,SOMWANG
,694/1หมู่ที่ 3,,694/1หมู่ที่ 3 ตำบลเวียงพางคำ อำเภอแม่สาย จังหวัดเชียงราย 57130,,แม่สาย(เชียงราย),,แม่สาย,,053-731-534,20.433658,99.885084,,เชียงราย,,เวียงพางคำ,,053-731-533,,09.00 - 17.00 น.,,09.00 - 15.00 น.,,จันทร์ - ศุกร์,,เสาร์,,HW-180,083-0998383,SOMWANG
,126/55 หมู่ที่ 16,,126/55 หมู่ที่ 16 ตำบลในเมือง อำเภอเมืองขอนแก่น จังหวัดขอนแก่น 40000,,แยกสามเหลี่ยม (ขอนแก่น),,เมืองขอนแก่น,,043-306-905,16.440203,102.828231,,ขอนแก่น,,ในเมือง,,043-306-904,,09.00 - 17.00 น.,,09.00 - 15.00 น.,,จันทร์ - ศุกร์,,เสาร์,,HW-291,091-889-6111,SOMWANG
,94/22 หมู่ที่ 3,,94/22 หมู่ที่ 3 ตำบลแสนภูดาษ อำเภอบ้านโพธิ์ จังหวัดฉะเชิงเทรา 24140,,แสนภูดาษ (บ้านโพธิ์),,บ้านโพธิ์,,063-905-8444,13.590583,101.012972,,ฉะเชิงเทรา,,แสนภูดาษ,,038-577-929,,09.00 - 17.00 น.,,09.00 - 15.00 น.,,จันทร์ - ศุกร์,,เสาร์,,HW-345,038-577-930,SOMWANG
,53/77 หมู่ที่ 9,,53/77 หมู่ที่ 9 ตำบลทุ่งสุขลา อำเภอศรีราชา จังหวัดชลบุรี 20230,,แหลมฉบัง,,ศรีราชา,,038-196-725,13.08956,100.916853,,ชลบุรี,,ทุ่งสุขลา,,038-196-726,,09.00 - 17.00 น.,,09.00 - 15.00 น.,,จันทร์ - ศุกร์,,เสาร์,,HW-222,063-9049555,SOMWANG
,320/16 หมู่ที่ 22,,320/16 หมู่ที่ 22 ตำบลหัวขวาง อำเภอโกสุมพิสัย จังหวัดมหาสารคาม 44100,,โกสุมพิสัย,,โกสุมพิสัย,,043-761-124,16.249526,103.065574,,มหาสารคาม,,หัวขวาง,,043-761-125,,09.00 - 17.00 น.,,09.00 - 15.00 น.,,จันทร์ - ศุกร์,,เสาร์,,HW-122,091-7744000,SOMWANG
,98 ถนนสุระนารายณ์,,98 ถนนสุระนารายณ์ ตำบลโคกสำโรง อำเภอโคกสำโรง จังหวัดลพบุรี 15120,,โคกสำโรง(ลพบุรี),,โคกสำโรง,,036-441-307,15.065278,100.722056,,ลพบุรี,,โคกสำโรง,,036-441-308,,09.00 - 17.00 น.,,09.00 - 15.00 น.,,จันทร์ - ศุกร์,,เสาร์,,HW-160,091-7702700,SOMWANG
,57 ถนนโพธาราม-บ้านเลือก,,57 ถนนโพธาราม-บ้านเลือก ตำบลโพธาราม อำเภอโพธาราม จังหวัดราชบุรี 70120,,โพธาราม(ราชบุรี),,โพธาราม,,032-231-165,13.697129,99.854379,,ราชบุรี,,โพธาราม,,032-231-164,,09.00 - 17.00 น.,,09.00 - 15.00 น.,,จันทร์ - ศุกร์,,เสาร์,,HW-195,091-8081400,SOMWANG
,367 หมู่ที่ 1,,367 หมู่ที่ 1 ตำบลจุมพล อำเภอโพนพิสัย จังหวัดหนองคาย 43120,,โพนพิสัย(หนองคาย),,โพนพิสัย,,042-471-482,18.01856,103.080218,,หนองคาย,,จุมพล,,042-471-481,,09.00 - 17.00 น.,,09.00 - 15.00 น.,,จันทร์ - ศุกร์,,เสาร์,,HW-146,095-3716600,SOMWANG
,84-85 หมู่ที่ 2 ถนนโรจนะ,,84-85 หมู่ที่ 2 ถนนโรจนะ ตำบลคานหาม อำเภออุทัย จังหวัดพระนครศรีอยุธยา 13210,,โรจนะ,,อุทัย,,035-706-317,14.319976,100.634124,,พระนครศรีอยุธยา,,คานหาม,,035-706-316,,09.00 - 17.00 น.,,09.00 - 15.00 น.,,จันทร์ - ศุกร์,,เสาร์,,HW-054,082-8668000,SOMWANG
